<?xml version="1.0" encoding="UTF-8"?><gpx xmlns="http://www.topografix.com/GPX/1/1" version="1.1" creator="JPX - https://github.com/jenetics/jpx">
  <metadata>
    <name>AVINAV BREST 241/25</name>
    <desc>Mise en garde : ces données GPX générées depuis PING sont partielles et seulement destinées à faciliter l'intégration de la position de l'avertissement de navigation ou de l'avis aux navigateurs dans une carte numérique. L'intégralité des informations est disponible sur le portail PING.
Dangers nouvellement découverts
</desc>
    <author>
      <name>CECLANT INFONAUT</name>
    </author>
    <link href="https://portail.ping-info-nautique.fr/avurnav-notice/716dbb62-be9a-46bc-9478-48ac30b7c73d"/>
    <bounds minlat="47.46833333333335" minlon="-3.0258333333333307" maxlat="47.46833333333335" maxlon="-3.0258333333333307"/>
  </metadata>
  <trk>
    <name>AVINAV BREST 241/25 #1/1</name>
    <desc>Dangers nouvellement découverts</desc>
    <link href="https://portail.ping-info-nautique.fr/avurnav-notice/716dbb62-be9a-46bc-9478-48ac30b7c73d"/>
    <trkseg>
      <trkpt lat="47.46833333333335" lon="-3.0258333333333307"/>
    </trkseg>
  </trk>
</gpx>
