<?xml version="1.0" encoding="UTF-8"?><gpx xmlns="http://www.topografix.com/GPX/1/1" version="1.1" creator="JPX - https://github.com/jenetics/jpx">
  <metadata>
    <name>AVINAV BREST 166/23</name>
    <desc>Mise en garde : ces données GPX générées depuis PING sont partielles et seulement destinées à faciliter l'intégration de la position de l'avertissement de navigation ou de l'avis aux navigateurs dans une carte numérique. L'intégralité des informations est disponible sur le portail PING.
Dangers nouvellement découverts
</desc>
    <author>
      <name>CECLANT INFONAUT</name>
    </author>
    <link href="https://portail.ping-info-nautique.fr/avurnav-notice/d4e19bcd-fed6-4889-b67c-4eff8e37ea41"/>
    <bounds minlat="48.66249999999999" minlon="-2.731666666666646" maxlat="48.66249999999999" maxlon="-2.731666666666646"/>
  </metadata>
  <trk>
    <name>AVINAV BREST 166/23 #1/1</name>
    <desc>Dangers nouvellement découverts</desc>
    <link href="https://portail.ping-info-nautique.fr/avurnav-notice/d4e19bcd-fed6-4889-b67c-4eff8e37ea41"/>
    <trkseg>
      <trkpt lat="48.66249999999999" lon="-2.731666666666646"/>
    </trkseg>
  </trk>
</gpx>
