<?xml version="1.0" encoding="UTF-8"?><gpx xmlns="http://www.topografix.com/GPX/1/1" version="1.1" creator="JPX - https://github.com/jenetics/jpx">
  <metadata>
    <name>AVINAV BREST 200/23</name>
    <desc>Mise en garde : ces données GPX générées depuis PING sont partielles et seulement destinées à faciliter l'intégration de la position de l'avertissement de navigation ou de l'avis aux navigateurs dans une carte numérique. L'intégralité des informations est disponible sur le portail PING.
Dangers nouvellement découverts
</desc>
    <author>
      <name>CECLANT INFONAUT</name>
    </author>
    <link href="https://portail.ping-info-nautique.fr/avurnav-notice/07f4181c-7f4d-431f-b437-c544259d4611"/>
    <bounds minlat="45.63133333333328" minlon="-1.2026666666666934" maxlat="45.63133333333328" maxlon="-1.2026666666666934"/>
  </metadata>
  <trk>
    <name>AVINAV BREST 200/23 #1/1</name>
    <desc>Evolution d'une langue de sable ou d'un banc de sable - Faible profondeur signalée
</desc>
    <link href="https://portail.ping-info-nautique.fr/avurnav-notice/07f4181c-7f4d-431f-b437-c544259d4611"/>
    <trkseg>
      <trkpt lat="45.63133333333328" lon="-1.2026666666666934"/>
    </trkseg>
  </trk>
</gpx>
