<?xml version="1.0" encoding="UTF-8"?><gpx xmlns="http://www.topografix.com/GPX/1/1" version="1.1" creator="JPX - https://github.com/jenetics/jpx">
  <metadata>
    <name>AVINAV BREST 204/24</name>
    <desc>Mise en garde : ces données GPX générées depuis PING sont partielles et seulement destinées à faciliter l'intégration de la position de l'avertissement de navigation ou de l'avis aux navigateurs dans une carte numérique. L'intégralité des informations est disponible sur le portail PING.
Danger, autres
</desc>
    <author>
      <name>CECLANT INFONAUT</name>
    </author>
    <link href="https://portail.ping-info-nautique.fr/avurnav-notice/b2d188af-bc92-4a55-a6dd-d49408acb49d"/>
    <bounds minlat="47.156216666666666" minlon="-2.605283333333342" maxlat="47.156216666666666" maxlon="-2.605283333333342"/>
  </metadata>
  <trk>
    <name>AVINAV BREST 204/24 #1/1</name>
    <desc>Danger, autres</desc>
    <link href="https://portail.ping-info-nautique.fr/avurnav-notice/b2d188af-bc92-4a55-a6dd-d49408acb49d"/>
    <trkseg>
      <trkpt lat="47.156216666666666" lon="-2.605283333333342"/>
    </trkseg>
  </trk>
</gpx>
