<?xml version="1.0" encoding="UTF-8"?><gpx xmlns="http://www.topografix.com/GPX/1/1" version="1.1" creator="JPX - https://github.com/jenetics/jpx">
  <metadata>
    <name>AVINAV BREST 238/24</name>
    <desc>Mise en garde : ces données GPX générées depuis PING sont partielles et seulement destinées à faciliter l'intégration de la position de l'avertissement de navigation ou de l'avis aux navigateurs dans une carte numérique. L'intégralité des informations est disponible sur le portail PING.
Opérations spéciales
</desc>
    <author>
      <name>CECLANT INFONAUT</name>
    </author>
    <link href="https://portail.ping-info-nautique.fr/avurnav-notice/ea3399a4-382c-4c75-9bc8-8b01a55cff48"/>
    <bounds minlat="46.12416666666663" minlon="-1.2478333333333347" maxlat="46.12416666666663" maxlon="-1.2478333333333347"/>
  </metadata>
  <trk>
    <name>AVINAV BREST 238/24 #1/1</name>
    <desc>Levé scientifique
</desc>
    <link href="https://portail.ping-info-nautique.fr/avurnav-notice/ea3399a4-382c-4c75-9bc8-8b01a55cff48"/>
    <trkseg>
      <trkpt lat="46.12416666666663" lon="-1.2478333333333347"/>
    </trkseg>
  </trk>
</gpx>
