<?xml version="1.0" encoding="UTF-8"?><gpx xmlns="http://www.topografix.com/GPX/1/1" version="1.1" creator="JPX - https://github.com/jenetics/jpx">
  <metadata>
    <name>AVINAV BREST 286/22</name>
    <desc>Mise en garde : ces données GPX générées depuis PING sont partielles et seulement destinées à faciliter l'intégration de la position de l'avertissement de navigation ou de l'avis aux navigateurs dans une carte numérique. L'intégralité des informations est disponible sur le portail PING.
Dangers nouvellement découverts
</desc>
    <author>
      <name>CECLANT INFONAUT</name>
    </author>
    <link href="https://portail.ping-info-nautique.fr/avurnav-notice/69a76b83-f957-4cb7-aad5-9a7dbc2d826f"/>
    <bounds minlat="48.35133333333334" minlon="-4.543166666666666" maxlat="48.35133333333334" maxlon="-4.543166666666666"/>
  </metadata>
  <trk>
    <name>AVINAV BREST 286/22 #1/1</name>
    <desc>Objet immergé
</desc>
    <link href="https://portail.ping-info-nautique.fr/avurnav-notice/69a76b83-f957-4cb7-aad5-9a7dbc2d826f"/>
    <trkseg>
      <trkpt lat="48.35133333333334" lon="-4.543166666666666"/>
    </trkseg>
  </trk>
</gpx>
