<?xml version="1.0" encoding="UTF-8"?><gpx xmlns="http://www.topografix.com/GPX/1/1" version="1.1" creator="JPX - https://github.com/jenetics/jpx">
  <metadata>
    <name>AVINAV BREST 196/25</name>
    <desc>Mise en garde : ces données GPX générées depuis PING sont partielles et seulement destinées à faciliter l'intégration de la position de l'avertissement de navigation ou de l'avis aux navigateurs dans une carte numérique. L'intégralité des informations est disponible sur le portail PING.
Dangers nouvellement découverts
</desc>
    <author>
      <name>CECLANT INFONAUT</name>
    </author>
    <link href="https://portail.ping-info-nautique.fr/avurnav-notice/581fcbf1-2eeb-421d-a051-e7ddcc613799"/>
    <bounds minlat="44.66413333333329" minlon="-1.0658833333332995" maxlat="44.66413333333329" maxlon="-1.0658833333332995"/>
  </metadata>
  <trk>
    <name>AVINAV BREST 196/25 #1/1</name>
    <desc>Objet immergé
</desc>
    <link href="https://portail.ping-info-nautique.fr/avurnav-notice/581fcbf1-2eeb-421d-a051-e7ddcc613799"/>
    <trkseg>
      <trkpt lat="44.66413333333329" lon="-1.0658833333332995"/>
    </trkseg>
  </trk>
</gpx>
