<?xml version="1.0" encoding="UTF-8"?><gpx xmlns="http://www.topografix.com/GPX/1/1" version="1.1" creator="JPX - https://github.com/jenetics/jpx">
  <metadata>
    <name>AVINAV BREST 135/25</name>
    <desc>Mise en garde : ces données GPX générées depuis PING sont partielles et seulement destinées à faciliter l'intégration de la position de l'avertissement de navigation ou de l'avis aux navigateurs dans une carte numérique. L'intégralité des informations est disponible sur le portail PING.
Danger, autres
</desc>
    <author>
      <name>CECLANT INFONAUT</name>
    </author>
    <link href="https://portail.ping-info-nautique.fr/avurnav-notice/a9296d12-4b2c-41d0-b359-33518d8c1e4c"/>
    <bounds minlat="48.85" minlon="-3.016666666666709" maxlat="48.85" maxlon="-3.016666666666709"/>
  </metadata>
  <trk>
    <name>AVINAV BREST 135/25 #1/1</name>
    <desc>Zone dangereuse
</desc>
    <link href="https://portail.ping-info-nautique.fr/avurnav-notice/a9296d12-4b2c-41d0-b359-33518d8c1e4c"/>
    <trkseg>
      <trkpt lat="48.85" lon="-3.016666666666709"/>
    </trkseg>
  </trk>
</gpx>
