<?xml version="1.0" encoding="UTF-8"?><gpx xmlns="http://www.topografix.com/GPX/1/1" version="1.1" creator="JPX - https://github.com/jenetics/jpx">
  <metadata>
    <name>AVINAV BREST 326/23</name>
    <desc>Mise en garde : ces données GPX générées depuis PING sont partielles et seulement destinées à faciliter l'intégration de la position de l'avertissement de navigation ou de l'avis aux navigateurs dans une carte numérique. L'intégralité des informations est disponible sur le portail PING.
Dangers nouvellement découverts
</desc>
    <author>
      <name>CECLANT INFONAUT</name>
    </author>
    <link href="https://portail.ping-info-nautique.fr/avurnav-notice/3a6ad328-0c29-4022-b6c6-e6b37a9d8766"/>
    <bounds minlat="47.14166666666663" minlon="-2.4016666666666486" maxlat="47.14166666666663" maxlon="-2.4016666666666486"/>
  </metadata>
  <trk>
    <name>AVINAV BREST 326/23 #1/1</name>
    <desc>Dangers nouvellement découverts</desc>
    <link href="https://portail.ping-info-nautique.fr/avurnav-notice/3a6ad328-0c29-4022-b6c6-e6b37a9d8766"/>
    <trkseg>
      <trkpt lat="47.14166666666663" lon="-2.4016666666666486"/>
    </trkseg>
  </trk>
</gpx>
