<?xml version="1.0" encoding="UTF-8"?><gpx xmlns="http://www.topografix.com/GPX/1/1" version="1.1" creator="JPX - https://github.com/jenetics/jpx">
  <metadata>
    <name>AVINAV BREST 299/20</name>
    <desc>Mise en garde : ces données GPX générées depuis PING sont partielles et seulement destinées à faciliter l'intégration de la position de l'avertissement de navigation ou de l'avis aux navigateurs dans une carte numérique. L'intégralité des informations est disponible sur le portail PING.
Dangers nouvellement découverts
</desc>
    <author>
      <name>CECLANT INFONAUT</name>
    </author>
    <link href="https://portail.ping-info-nautique.fr/avurnav-notice/3d3ba94d-b4e8-4e5f-a9aa-65a81bfe5080"/>
    <bounds minlat="48.826333333333324" minlon="-3.0021666666666413" maxlat="48.826333333333324" maxlon="-3.0021666666666413"/>
  </metadata>
  <trk>
    <name>AVINAV BREST 299/20 #1/1</name>
    <desc>Epave dangereuse
</desc>
    <link href="https://portail.ping-info-nautique.fr/avurnav-notice/3d3ba94d-b4e8-4e5f-a9aa-65a81bfe5080"/>
    <trkseg>
      <trkpt lat="48.826333333333324" lon="-3.0021666666666413"/>
    </trkseg>
  </trk>
</gpx>
