<?xml version="1.0" encoding="UTF-8"?><gpx xmlns="http://www.topografix.com/GPX/1/1" version="1.1" creator="JPX - https://github.com/jenetics/jpx">
  <metadata>
    <name>AVINAV BREST 185/24</name>
    <desc>Mise en garde : ces données GPX générées depuis PING sont partielles et seulement destinées à faciliter l'intégration de la position de l'avertissement de navigation ou de l'avis aux navigateurs dans une carte numérique. L'intégralité des informations est disponible sur le portail PING.
Dangers nouvellement découverts
</desc>
    <author>
      <name>CECLANT INFONAUT</name>
    </author>
    <link href="https://portail.ping-info-nautique.fr/avurnav-notice/93cac144-bd5f-4601-846c-62fd22c0b2e0"/>
    <bounds minlat="46.135683333333326" minlon="-1.269183333333367" maxlat="46.135683333333326" maxlon="-1.269183333333367"/>
  </metadata>
  <trk>
    <name>AVINAV BREST 185/24 #1/1</name>
    <desc>Présence d'un filet de pêche immergé
</desc>
    <link href="https://portail.ping-info-nautique.fr/avurnav-notice/93cac144-bd5f-4601-846c-62fd22c0b2e0"/>
    <trkseg>
      <trkpt lat="46.135683333333326" lon="-1.269183333333367"/>
    </trkseg>
  </trk>
</gpx>
