<?xml version="1.0" encoding="UTF-8"?><gpx xmlns="http://www.topografix.com/GPX/1/1" version="1.1" creator="JPX - https://github.com/jenetics/jpx">
  <metadata>
    <name>AVINAV BREST 328/24</name>
    <desc>Mise en garde : ces données GPX générées depuis PING sont partielles et seulement destinées à faciliter l'intégration de la position de l'avertissement de navigation ou de l'avis aux navigateurs dans une carte numérique. L'intégralité des informations est disponible sur le portail PING.
Dangers nouvellement découverts
</desc>
    <author>
      <name>CECLANT INFONAUT</name>
    </author>
    <link href="https://portail.ping-info-nautique.fr/avurnav-notice/85c10215-300c-4570-9150-b00b99618324"/>
    <bounds minlat="47.112663333333316" minlon="-2.436831666666689" maxlat="47.112663333333316" maxlon="-2.436831666666689"/>
  </metadata>
  <trk>
    <name>AVINAV BREST 328/24 #1/1</name>
    <desc>Mouillage immergé
</desc>
    <link href="https://portail.ping-info-nautique.fr/avurnav-notice/85c10215-300c-4570-9150-b00b99618324"/>
    <trkseg>
      <trkpt lat="47.112663333333316" lon="-2.436831666666689"/>
    </trkseg>
  </trk>
</gpx>
