<?xml version="1.0" encoding="UTF-8"?><gpx xmlns="http://www.topografix.com/GPX/1/1" version="1.1" creator="JPX - https://github.com/jenetics/jpx">
  <metadata>
    <name>AVINAV BREST 263/23</name>
    <desc>Mise en garde : ces données GPX générées depuis PING sont partielles et seulement destinées à faciliter l'intégration de la position de l'avertissement de navigation ou de l'avis aux navigateurs dans une carte numérique. L'intégralité des informations est disponible sur le portail PING.
Dangers nouvellement découverts
</desc>
    <author>
      <name>CECLANT INFONAUT</name>
    </author>
    <link href="https://portail.ping-info-nautique.fr/avurnav-notice/9f5eed6b-0204-4602-b389-e426b1361072"/>
    <bounds minlat="47.41883333333334" minlon="-2.459000000000003" maxlat="47.41883333333334" maxlon="-2.459000000000003"/>
  </metadata>
  <trk>
    <name>AVINAV BREST 263/23 #1/1</name>
    <desc>Epave dangereuse
</desc>
    <link href="https://portail.ping-info-nautique.fr/avurnav-notice/9f5eed6b-0204-4602-b389-e426b1361072"/>
    <trkseg>
      <trkpt lat="47.41883333333334" lon="-2.459000000000003"/>
    </trkseg>
  </trk>
</gpx>
