<?xml version="1.0" encoding="UTF-8"?><gpx xmlns="http://www.topografix.com/GPX/1/1" version="1.1" creator="JPX - https://github.com/jenetics/jpx">
  <metadata>
    <name>AVINAV BREST 250/24</name>
    <desc>Mise en garde : ces données GPX générées depuis PING sont partielles et seulement destinées à faciliter l'intégration de la position de l'avertissement de navigation ou de l'avis aux navigateurs dans une carte numérique. L'intégralité des informations est disponible sur le portail PING.
Dangers nouvellement découverts
</desc>
    <author>
      <name>CECLANT INFONAUT</name>
    </author>
    <link href="https://portail.ping-info-nautique.fr/avurnav-notice/7fa25bc1-5ffc-4c96-806f-aa5902d433ad"/>
    <bounds minlat="47.63626666666666" minlon="-4.2654000000000085" maxlat="47.644916666666674" maxlon="-4.26494999999998"/>
  </metadata>
  <trk>
    <name>AVINAV BREST 250/24 #1/1</name>
    <desc>Objet immergé
</desc>
    <link href="https://portail.ping-info-nautique.fr/avurnav-notice/7fa25bc1-5ffc-4c96-806f-aa5902d433ad"/>
    <trkseg>
      <trkpt lat="47.644916666666674" lon="-4.26494999999998"/>
    </trkseg>
  </trk>
  <trk>
    <name>AVINAV BREST 250/24 #1/1</name>
    <desc>Objet immergé
</desc>
    <link href="https://portail.ping-info-nautique.fr/avurnav-notice/7fa25bc1-5ffc-4c96-806f-aa5902d433ad"/>
    <trkseg>
      <trkpt lat="47.63626666666666" lon="-4.2654000000000085"/>
    </trkseg>
  </trk>
</gpx>
