<?xml version="1.0" encoding="UTF-8"?><gpx xmlns="http://www.topografix.com/GPX/1/1" version="1.1" creator="JPX - https://github.com/jenetics/jpx">
  <metadata>
    <name>AVINAV BREST 210/24</name>
    <desc>Mise en garde : ces données GPX générées depuis PING sont partielles et seulement destinées à faciliter l'intégration de la position de l'avertissement de navigation ou de l'avis aux navigateurs dans une carte numérique. L'intégralité des informations est disponible sur le portail PING.
Dangers nouvellement découverts
</desc>
    <author>
      <name>CECLANT INFONAUT</name>
    </author>
    <link href="https://portail.ping-info-nautique.fr/avurnav-notice/404bab2d-45c1-4bb5-94aa-c55b2792e7c5"/>
    <bounds minlat="44.32233333333335" minlon="-1.399999999999973" maxlat="44.32233333333335" maxlon="-1.399999999999973"/>
  </metadata>
  <trk>
    <name>AVINAV BREST 210/24 #1/1</name>
    <desc>Objet immergé
</desc>
    <link href="https://portail.ping-info-nautique.fr/avurnav-notice/404bab2d-45c1-4bb5-94aa-c55b2792e7c5"/>
    <trkseg>
      <trkpt lat="44.32233333333335" lon="-1.399999999999973"/>
    </trkseg>
  </trk>
</gpx>
