<?xml version="1.0" encoding="UTF-8"?><gpx xmlns="http://www.topografix.com/GPX/1/1" version="1.1" creator="JPX - https://github.com/jenetics/jpx">
  <metadata>
    <name>AVINAV BREST 203/22</name>
    <desc>Mise en garde : ces données GPX générées depuis PING sont partielles et seulement destinées à faciliter l'intégration de la position de l'avertissement de navigation ou de l'avis aux navigateurs dans une carte numérique. L'intégralité des informations est disponible sur le portail PING.
Dangers nouvellement découverts
</desc>
    <author>
      <name>CECLANT INFONAUT</name>
    </author>
    <link href="https://portail.ping-info-nautique.fr/avurnav-notice/371b6fa6-9739-43aa-9911-9181b4b02323"/>
    <bounds minlat="46.52966666666666" minlon="-1.8820000000000003" maxlat="46.52966666666666" maxlon="-1.8820000000000003"/>
  </metadata>
  <trk>
    <name>AVINAV BREST 203/22 #1/1</name>
    <desc>Objet immergé
</desc>
    <link href="https://portail.ping-info-nautique.fr/avurnav-notice/371b6fa6-9739-43aa-9911-9181b4b02323"/>
    <trkseg>
      <trkpt lat="46.52966666666666" lon="-1.8820000000000003"/>
    </trkseg>
  </trk>
</gpx>
