<?xml version="1.0" encoding="UTF-8"?><gpx xmlns="http://www.topografix.com/GPX/1/1" version="1.1" creator="JPX - https://github.com/jenetics/jpx">
  <metadata>
    <name>AVINAV BREST 25/23</name>
    <desc>Mise en garde : ces données GPX générées depuis PING sont partielles et seulement destinées à faciliter l'intégration de la position de l'avertissement de navigation ou de l'avis aux navigateurs dans une carte numérique. L'intégralité des informations est disponible sur le portail PING.
Dangers nouvellement découverts
</desc>
    <author>
      <name>CECLANT INFONAUT</name>
    </author>
    <link href="https://portail.ping-info-nautique.fr/avurnav-notice/4d47563d-c60a-4655-8280-1f3a704ea41c"/>
    <bounds minlat="47.54050000000001" minlon="-3.020333333333333" maxlat="47.54050000000001" maxlon="-3.020333333333333"/>
  </metadata>
  <trk>
    <name>AVINAV BREST 25/23 #1/1</name>
    <desc>Objet immergé
</desc>
    <link href="https://portail.ping-info-nautique.fr/avurnav-notice/4d47563d-c60a-4655-8280-1f3a704ea41c"/>
    <trkseg>
      <trkpt lat="47.54050000000001" lon="-3.020333333333333"/>
    </trkseg>
  </trk>
</gpx>
