<?xml version="1.0" encoding="UTF-8"?><gpx xmlns="http://www.topografix.com/GPX/1/1" version="1.1" creator="JPX - https://github.com/jenetics/jpx">
  <metadata>
    <name>AVINAV BREST 80/24</name>
    <desc>Mise en garde : ces données GPX générées depuis PING sont partielles et seulement destinées à faciliter l'intégration de la position de l'avertissement de navigation ou de l'avis aux navigateurs dans une carte numérique. L'intégralité des informations est disponible sur le portail PING.
Dangers nouvellement découverts
</desc>
    <author>
      <name>CECLANT INFONAUT</name>
    </author>
    <link href="https://portail.ping-info-nautique.fr/avurnav-notice/f4df5319-8ef4-44f1-a1a3-2959ddfe5a19"/>
    <bounds minlat="48.28916666666669" minlon="-4.580666666666711" maxlat="48.28916666666669" maxlon="-4.580666666666711"/>
  </metadata>
  <trk>
    <name>AVINAV BREST 80/24 #1/1</name>
    <desc>Objet immergé
</desc>
    <link href="https://portail.ping-info-nautique.fr/avurnav-notice/f4df5319-8ef4-44f1-a1a3-2959ddfe5a19"/>
    <trkseg>
      <trkpt lat="48.28916666666669" lon="-4.580666666666711"/>
    </trkseg>
  </trk>
</gpx>
