<?xml version="1.0" encoding="UTF-8"?><gpx xmlns="http://www.topografix.com/GPX/1/1" version="1.1" creator="JPX - https://github.com/jenetics/jpx">
  <metadata>
    <name>AVINAV BREST 149/24</name>
    <desc>Mise en garde : ces données GPX générées depuis PING sont partielles et seulement destinées à faciliter l'intégration de la position de l'avertissement de navigation ou de l'avis aux navigateurs dans une carte numérique. L'intégralité des informations est disponible sur le portail PING.
Dangers nouvellement découverts
</desc>
    <author>
      <name>CECLANT INFONAUT</name>
    </author>
    <link href="https://portail.ping-info-nautique.fr/avurnav-notice/93c6cdfb-464f-4141-926b-645a74a9d90d"/>
    <bounds minlat="46.20087690818341" minlon="-1.204372496084676" maxlat="46.20087690818341" maxlon="-1.204372496084676"/>
  </metadata>
  <trk>
    <name>AVINAV BREST 149/24 #1/1</name>
    <desc>Dangers nouvellement découverts</desc>
    <link href="https://portail.ping-info-nautique.fr/avurnav-notice/93c6cdfb-464f-4141-926b-645a74a9d90d"/>
    <trkseg>
      <trkpt lat="46.20087690818341" lon="-1.204372496084676"/>
    </trkseg>
  </trk>
</gpx>
