<?xml version="1.0" encoding="UTF-8"?><gpx xmlns="http://www.topografix.com/GPX/1/1" version="1.1" creator="JPX - https://github.com/jenetics/jpx">
  <metadata>
    <name>AVINAV BREST 291/23</name>
    <desc>Mise en garde : ces données GPX générées depuis PING sont partielles et seulement destinées à faciliter l'intégration de la position de l'avertissement de navigation ou de l'avis aux navigateurs dans une carte numérique. L'intégralité des informations est disponible sur le portail PING.
Dangers nouvellement découverts
</desc>
    <author>
      <name>CECLANT INFONAUT</name>
    </author>
    <link href="https://portail.ping-info-nautique.fr/avurnav-notice/9c143c3a-8a67-402a-8618-6b62feb248d3"/>
    <bounds minlat="44.69950000000001" minlon="-1.0743333333333611" maxlat="44.69950000000001" maxlon="-1.0743333333333611"/>
  </metadata>
  <trk>
    <name>AVINAV BREST 291/23 #1/1</name>
    <desc>Objet immergé
</desc>
    <link href="https://portail.ping-info-nautique.fr/avurnav-notice/9c143c3a-8a67-402a-8618-6b62feb248d3"/>
    <trkseg>
      <trkpt lat="44.69950000000001" lon="-1.0743333333333611"/>
    </trkseg>
  </trk>
</gpx>
