<?xml version="1.0" encoding="UTF-8"?><gpx xmlns="http://www.topografix.com/GPX/1/1" version="1.1" creator="JPX - https://github.com/jenetics/jpx">
  <metadata>
    <name>AVINAV BREST 371/21</name>
    <desc>Mise en garde : ces données GPX générées depuis PING sont partielles et seulement destinées à faciliter l'intégration de la position de l'avertissement de navigation ou de l'avis aux navigateurs dans une carte numérique. L'intégralité des informations est disponible sur le portail PING.
Dangers nouvellement découverts
</desc>
    <author>
      <name>CECLANT INFONAUT</name>
    </author>
    <link href="https://portail.ping-info-nautique.fr/avurnav-notice/d37d8392-8794-4a8a-9cd2-a21cf78efc6b"/>
    <bounds minlat="44.72349999999997" minlon="-1.1953333333333063" maxlat="44.72349999999997" maxlon="-1.1953333333333063"/>
  </metadata>
  <trk>
    <name>AVINAV BREST 371/21 #1/1</name>
    <desc>Epave dangereuse
</desc>
    <link href="https://portail.ping-info-nautique.fr/avurnav-notice/d37d8392-8794-4a8a-9cd2-a21cf78efc6b"/>
    <trkseg>
      <trkpt lat="44.72349999999997" lon="-1.1953333333333063"/>
    </trkseg>
  </trk>
</gpx>
