<?xml version="1.0" encoding="UTF-8"?><gpx xmlns="http://www.topografix.com/GPX/1/1" version="1.1" creator="JPX - https://github.com/jenetics/jpx">
  <metadata>
    <name>AVINAV BREST 297/24</name>
    <desc>Mise en garde : ces données GPX générées depuis PING sont partielles et seulement destinées à faciliter l'intégration de la position de l'avertissement de navigation ou de l'avis aux navigateurs dans une carte numérique. L'intégralité des informations est disponible sur le portail PING.
Dangers nouvellement découverts
</desc>
    <author>
      <name>CECLANT INFONAUT</name>
    </author>
    <link href="https://portail.ping-info-nautique.fr/avurnav-notice/cb5df111-34ea-46e4-8284-cc48659ccdc4"/>
    <bounds minlat="43.67044999999995" minlon="-1.4445200000000042" maxlat="43.67044999999995" maxlon="-1.4445200000000042"/>
  </metadata>
  <trk>
    <name>AVINAV BREST 297/24 #1/1</name>
    <desc>Présence d'un filet de pêche immergé
</desc>
    <link href="https://portail.ping-info-nautique.fr/avurnav-notice/cb5df111-34ea-46e4-8284-cc48659ccdc4"/>
    <trkseg>
      <trkpt lat="43.67044999999995" lon="-1.4445200000000042"/>
    </trkseg>
  </trk>
</gpx>
