<?xml version="1.0" encoding="UTF-8"?><gpx xmlns="http://www.topografix.com/GPX/1/1" version="1.1" creator="JPX - https://github.com/jenetics/jpx">
  <metadata>
    <name>AVINAV BREST 312/23</name>
    <desc>Mise en garde : ces données GPX générées depuis PING sont partielles et seulement destinées à faciliter l'intégration de la position de l'avertissement de navigation ou de l'avis aux navigateurs dans une carte numérique. L'intégralité des informations est disponible sur le portail PING.
Danger, autres
</desc>
    <author>
      <name>CECLANT INFONAUT</name>
    </author>
    <link href="https://portail.ping-info-nautique.fr/avurnav-notice/d18af2e6-b663-406d-bc40-f25ec29693a9"/>
    <bounds minlat="46.914666666666655" minlon="-2.1248333333333265" maxlat="46.914666666666655" maxlon="-2.1248333333333265"/>
  </metadata>
  <trk>
    <name>AVINAV BREST 312/23 #1/1</name>
    <desc>Zone dangereuse
</desc>
    <link href="https://portail.ping-info-nautique.fr/avurnav-notice/d18af2e6-b663-406d-bc40-f25ec29693a9"/>
    <trkseg>
      <trkpt lat="46.914666666666655" lon="-2.1248333333333265"/>
    </trkseg>
  </trk>
</gpx>
