<?xml version="1.0" encoding="UTF-8"?><gpx xmlns="http://www.topografix.com/GPX/1/1" version="1.1" creator="JPX - https://github.com/jenetics/jpx">
  <metadata>
    <name>AVINAV BREST 169/25</name>
    <desc>Mise en garde : ces données GPX générées depuis PING sont partielles et seulement destinées à faciliter l'intégration de la position de l'avertissement de navigation ou de l'avis aux navigateurs dans une carte numérique. L'intégralité des informations est disponible sur le portail PING.
Dangers nouvellement découverts
</desc>
    <author>
      <name>CECLANT INFONAUT</name>
    </author>
    <link href="https://portail.ping-info-nautique.fr/avurnav-notice/488bd119-409f-4f00-be28-1844cb547cd0"/>
    <bounds minlat="47.10780224125976" minlon="-2.1110105173348455" maxlat="47.10780224125976" maxlon="-2.1110105173348455"/>
  </metadata>
  <trk>
    <name>AVINAV BREST 169/25 #1/1</name>
    <desc>Faible profondeur signalée
</desc>
    <link href="https://portail.ping-info-nautique.fr/avurnav-notice/488bd119-409f-4f00-be28-1844cb547cd0"/>
    <trkseg>
      <trkpt lat="47.10780224125976" lon="-2.1110105173348455"/>
    </trkseg>
  </trk>
</gpx>
