<?xml version="1.0" encoding="UTF-8"?><gpx xmlns="http://www.topografix.com/GPX/1/1" version="1.1" creator="JPX - https://github.com/jenetics/jpx">
  <metadata>
    <name>AVINAV BREST 8/23</name>
    <desc>Mise en garde : ces données GPX générées depuis PING sont partielles et seulement destinées à faciliter l'intégration de la position de l'avertissement de navigation ou de l'avis aux navigateurs dans une carte numérique. L'intégralité des informations est disponible sur le portail PING.
Danger, autres
</desc>
    <author>
      <name>CECLANT INFONAUT</name>
    </author>
    <link href="https://portail.ping-info-nautique.fr/avurnav-notice/c1c8adb0-56e0-48b7-9870-623e60b0ba70"/>
    <bounds minlat="45.95699999999997" minlon="-1.1196666666666666" maxlat="45.95699999999997" maxlon="-1.1196666666666666"/>
  </metadata>
  <trk>
    <name>AVINAV BREST 8/23 #1/1</name>
    <desc>Zone dangereuse
</desc>
    <link href="https://portail.ping-info-nautique.fr/avurnav-notice/c1c8adb0-56e0-48b7-9870-623e60b0ba70"/>
    <trkseg>
      <trkpt lat="45.95699999999997" lon="-1.1196666666666666"/>
    </trkseg>
  </trk>
</gpx>
