<?xml version="1.0" encoding="UTF-8"?><gpx xmlns="http://www.topografix.com/GPX/1/1" version="1.1" creator="JPX - https://github.com/jenetics/jpx">
  <metadata>
    <name>AVINAV BREST 253/25</name>
    <desc>Mise en garde : ces données GPX générées depuis PING sont partielles et seulement destinées à faciliter l'intégration de la position de l'avertissement de navigation ou de l'avis aux navigateurs dans une carte numérique. L'intégralité des informations est disponible sur le portail PING.
Dangers nouvellement découverts
</desc>
    <author>
      <name>CECLANT INFONAUT</name>
    </author>
    <link href="https://portail.ping-info-nautique.fr/avurnav-notice/949e17d7-ea0f-49b9-b6a4-82163e21ef5e"/>
    <bounds minlat="48.78241666666666" minlon="-2.8528666666666926" maxlat="48.78241666666666" maxlon="-2.8528666666666926"/>
  </metadata>
  <trk>
    <name>AVINAV BREST 253/25 #1/1</name>
    <desc>Epave dangereuse
</desc>
    <link href="https://portail.ping-info-nautique.fr/avurnav-notice/949e17d7-ea0f-49b9-b6a4-82163e21ef5e"/>
    <trkseg>
      <trkpt lat="48.78241666666666" lon="-2.8528666666666926"/>
    </trkseg>
  </trk>
</gpx>
