<?xml version="1.0" encoding="UTF-8"?><gpx xmlns="http://www.topografix.com/GPX/1/1" version="1.1" creator="JPX - https://github.com/jenetics/jpx">
  <metadata>
    <name>AVINAV BREST 262/20</name>
    <desc>Mise en garde : ces données GPX générées depuis PING sont partielles et seulement destinées à faciliter l'intégration de la position de l'avertissement de navigation ou de l'avis aux navigateurs dans une carte numérique. L'intégralité des informations est disponible sur le portail PING.
Dangers nouvellement découverts
</desc>
    <author>
      <name>CECLANT INFONAUT</name>
    </author>
    <link href="https://portail.ping-info-nautique.fr/avurnav-notice/fa29a4c1-f20e-4c0a-aa43-80ba49dba16d"/>
    <bounds minlat="44.5333333333333" minlon="-1.399999999999973" maxlat="44.5333333333333" maxlon="-1.399999999999973"/>
  </metadata>
  <trk>
    <name>AVINAV BREST 262/20 #1/1</name>
    <desc>Epave dangereuse
</desc>
    <link href="https://portail.ping-info-nautique.fr/avurnav-notice/fa29a4c1-f20e-4c0a-aa43-80ba49dba16d"/>
    <trkseg>
      <trkpt lat="44.5333333333333" lon="-1.399999999999973"/>
    </trkseg>
  </trk>
</gpx>
