<?xml version="1.0" encoding="UTF-8"?><gpx xmlns="http://www.topografix.com/GPX/1/1" version="1.1" creator="JPX - https://github.com/jenetics/jpx">
  <metadata>
    <name>AVINAV BREST 139/25</name>
    <desc>Mise en garde : ces données GPX générées depuis PING sont partielles et seulement destinées à faciliter l'intégration de la position de l'avertissement de navigation ou de l'avis aux navigateurs dans une carte numérique. L'intégralité des informations est disponible sur le portail PING.
Dangers nouvellement découverts
</desc>
    <author>
      <name>CECLANT INFONAUT</name>
    </author>
    <link href="https://portail.ping-info-nautique.fr/avurnav-notice/5e93ddf6-603a-45f9-9055-444337df97b7"/>
    <bounds minlat="48.73958333333331" minlon="-4.807249999999961" maxlat="48.73958333333331" maxlon="-4.807249999999961"/>
  </metadata>
  <trk>
    <name>AVINAV BREST 139/25 #1/1</name>
    <desc>Epave dangereuse
</desc>
    <link href="https://portail.ping-info-nautique.fr/avurnav-notice/5e93ddf6-603a-45f9-9055-444337df97b7"/>
    <trkseg>
      <trkpt lat="48.73958333333331" lon="-4.807249999999961"/>
    </trkseg>
  </trk>
</gpx>
