<?xml version="1.0" encoding="UTF-8"?><gpx xmlns="http://www.topografix.com/GPX/1/1" version="1.1" creator="JPX - https://github.com/jenetics/jpx">
  <metadata>
    <name>AVINAV BREST 76/25</name>
    <desc>Mise en garde : ces données GPX générées depuis PING sont partielles et seulement destinées à faciliter l'intégration de la position de l'avertissement de navigation ou de l'avis aux navigateurs dans une carte numérique. L'intégralité des informations est disponible sur le portail PING.
Dangers nouvellement découverts
</desc>
    <author>
      <name>CECLANT INFONAUT</name>
    </author>
    <link href="https://portail.ping-info-nautique.fr/avurnav-notice/cea3652b-ab20-41ed-8a22-053de87994e0"/>
    <bounds minlat="48.64333333333327" minlon="-2.0383333333333096" maxlat="48.64333333333327" maxlon="-2.0383333333333096"/>
  </metadata>
  <trk>
    <name>AVINAV BREST 76/25 #1/1</name>
    <desc>Objet immergé
</desc>
    <link href="https://portail.ping-info-nautique.fr/avurnav-notice/cea3652b-ab20-41ed-8a22-053de87994e0"/>
    <trkseg>
      <trkpt lat="48.64333333333327" lon="-2.0383333333333096"/>
    </trkseg>
  </trk>
</gpx>
