<?xml version="1.0" encoding="UTF-8"?><gpx xmlns="http://www.topografix.com/GPX/1/1" version="1.1" creator="JPX - https://github.com/jenetics/jpx">
  <metadata>
    <name>AVINAV BREST 260/24</name>
    <desc>Mise en garde : ces données GPX générées depuis PING sont partielles et seulement destinées à faciliter l'intégration de la position de l'avertissement de navigation ou de l'avis aux navigateurs dans une carte numérique. L'intégralité des informations est disponible sur le portail PING.
Dangers nouvellement découverts
</desc>
    <author>
      <name>CECLANT INFONAUT</name>
    </author>
    <link href="https://portail.ping-info-nautique.fr/avurnav-notice/1f27ecb1-ab7a-4e63-a77a-ce751a41666b"/>
    <bounds minlat="44.34991666666664" minlon="-1.55636111111109" maxlat="44.34991666666664" maxlon="-1.55636111111109"/>
  </metadata>
  <trk>
    <name>AVINAV BREST 260/24 #1/1</name>
    <desc>Objet immergé
</desc>
    <link href="https://portail.ping-info-nautique.fr/avurnav-notice/1f27ecb1-ab7a-4e63-a77a-ce751a41666b"/>
    <trkseg>
      <trkpt lat="44.34991666666664" lon="-1.55636111111109"/>
    </trkseg>
  </trk>
</gpx>
