<?xml version="1.0" encoding="UTF-8"?><gpx xmlns="http://www.topografix.com/GPX/1/1" version="1.1" creator="JPX - https://github.com/jenetics/jpx">
  <metadata>
    <name>AVINAV BREST 155/25</name>
    <desc>Mise en garde : ces données GPX générées depuis PING sont partielles et seulement destinées à faciliter l'intégration de la position de l'avertissement de navigation ou de l'avis aux navigateurs dans une carte numérique. L'intégralité des informations est disponible sur le portail PING.
Dangers nouvellement découverts
</desc>
    <author>
      <name>CECLANT INFONAUT</name>
    </author>
    <link href="https://portail.ping-info-nautique.fr/avurnav-notice/fd024f34-f0c5-44bc-8d4c-d121ff0d70c4"/>
    <bounds minlat="45.60004999999999" minlon="-1.3941666666666768" maxlat="45.60004999999999" maxlon="-1.3941666666666768"/>
  </metadata>
  <trk>
    <name>AVINAV BREST 155/25 #1/1</name>
    <desc>Epave dangereuse
</desc>
    <link href="https://portail.ping-info-nautique.fr/avurnav-notice/fd024f34-f0c5-44bc-8d4c-d121ff0d70c4"/>
    <trkseg>
      <trkpt lat="45.60004999999999" lon="-1.3941666666666768"/>
    </trkseg>
  </trk>
</gpx>
