<?xml version="1.0" encoding="UTF-8"?><gpx xmlns="http://www.topografix.com/GPX/1/1" version="1.1" creator="JPX - https://github.com/jenetics/jpx">
  <metadata>
    <name>AVINAV BREST 309/24</name>
    <desc>Mise en garde : ces données GPX générées depuis PING sont partielles et seulement destinées à faciliter l'intégration de la position de l'avertissement de navigation ou de l'avis aux navigateurs dans une carte numérique. L'intégralité des informations est disponible sur le portail PING.
Dangers nouvellement découverts
</desc>
    <author>
      <name>CECLANT INFONAUT</name>
    </author>
    <link href="https://portail.ping-info-nautique.fr/avurnav-notice/61e110a9-b99e-45ff-a040-c163d51f3c3f"/>
    <bounds minlat="48.72187253311285" minlon="-4.0374627936185075" maxlat="48.72187253311285" maxlon="-4.0374627936185075"/>
  </metadata>
  <trk>
    <name>AVINAV BREST 309/24 #1/1</name>
    <desc>Objet immergé
</desc>
    <link href="https://portail.ping-info-nautique.fr/avurnav-notice/61e110a9-b99e-45ff-a040-c163d51f3c3f"/>
    <trkseg>
      <trkpt lat="48.72187253311285" lon="-4.0374627936185075"/>
    </trkseg>
  </trk>
</gpx>
