<?xml version="1.0" encoding="UTF-8"?><gpx xmlns="http://www.topografix.com/GPX/1/1" version="1.1" creator="JPX - https://github.com/jenetics/jpx">
  <metadata>
    <name>AVINAV BREST 225/25</name>
    <desc>Mise en garde : ces données GPX générées depuis PING sont partielles et seulement destinées à faciliter l'intégration de la position de l'avertissement de navigation ou de l'avis aux navigateurs dans une carte numérique. L'intégralité des informations est disponible sur le portail PING.
Dangers nouvellement découverts
</desc>
    <author>
      <name>CECLANT INFONAUT</name>
    </author>
    <link href="https://portail.ping-info-nautique.fr/avurnav-notice/86a5cbe5-cc58-4d71-acc1-0791462bc876"/>
    <bounds minlat="44.603333333333346" minlon="-1.2135000000000224" maxlat="44.603333333333346" maxlon="-1.2135000000000224"/>
  </metadata>
  <trk>
    <name>AVINAV BREST 225/25 #1/1</name>
    <desc>Objet immergé
</desc>
    <link href="https://portail.ping-info-nautique.fr/avurnav-notice/86a5cbe5-cc58-4d71-acc1-0791462bc876"/>
    <trkseg>
      <trkpt lat="44.603333333333346" lon="-1.2135000000000224"/>
    </trkseg>
  </trk>
</gpx>
