<?xml version="1.0" encoding="UTF-8"?><gpx xmlns="http://www.topografix.com/GPX/1/1" version="1.1" creator="JPX - https://github.com/jenetics/jpx">
  <metadata>
    <name>AVINAV BREST 122/19</name>
    <desc>Mise en garde : ces données GPX générées depuis PING sont partielles et seulement destinées à faciliter l'intégration de la position de l'avertissement de navigation ou de l'avis aux navigateurs dans une carte numérique. L'intégralité des informations est disponible sur le portail PING.
Dangers nouvellement découverts
</desc>
    <author>
      <name>CECLANT INFONAUT</name>
    </author>
    <link href="https://portail.ping-info-nautique.fr/avurnav-notice/fcab0a96-8a7b-4c76-809b-ce00a92b19f0"/>
    <bounds minlat="47.29949999999995" minlon="-2.032833333333337" maxlat="47.29949999999995" maxlon="-2.032833333333337"/>
  </metadata>
  <trk>
    <name>AVINAV BREST 122/19 #1/1</name>
    <desc>Objet immergé
</desc>
    <link href="https://portail.ping-info-nautique.fr/avurnav-notice/fcab0a96-8a7b-4c76-809b-ce00a92b19f0"/>
    <trkseg>
      <trkpt lat="47.29949999999995" lon="-2.032833333333337"/>
    </trkseg>
  </trk>
</gpx>
