<?xml version="1.0" encoding="UTF-8"?><gpx xmlns="http://www.topografix.com/GPX/1/1" version="1.1" creator="JPX - https://github.com/jenetics/jpx">
  <metadata>
    <name>AVINAV BREST 216/24</name>
    <desc>Mise en garde : ces données GPX générées depuis PING sont partielles et seulement destinées à faciliter l'intégration de la position de l'avertissement de navigation ou de l'avis aux navigateurs dans une carte numérique. L'intégralité des informations est disponible sur le portail PING.
Dangers nouvellement découverts
</desc>
    <author>
      <name>CECLANT INFONAUT</name>
    </author>
    <link href="https://portail.ping-info-nautique.fr/avurnav-notice/690a0473-1ced-4dcf-9ee9-ad3038cafe37"/>
    <bounds minlat="48.76500000000001" minlon="-2.9616666666667095" maxlat="48.76500000000001" maxlon="-2.9616666666667095"/>
  </metadata>
  <trk>
    <name>AVINAV BREST 216/24 #1/1</name>
    <desc>Epave dangereuse
</desc>
    <link href="https://portail.ping-info-nautique.fr/avurnav-notice/690a0473-1ced-4dcf-9ee9-ad3038cafe37"/>
    <trkseg>
      <trkpt lat="48.76500000000001" lon="-2.9616666666667095"/>
    </trkseg>
  </trk>
</gpx>
