<?xml version="1.0" encoding="UTF-8"?><gpx xmlns="http://www.topografix.com/GPX/1/1" version="1.1" creator="JPX - https://github.com/jenetics/jpx">
  <metadata>
    <name>AVINAV BREST 223/25</name>
    <desc>Mise en garde : ces données GPX générées depuis PING sont partielles et seulement destinées à faciliter l'intégration de la position de l'avertissement de navigation ou de l'avis aux navigateurs dans une carte numérique. L'intégralité des informations est disponible sur le portail PING.
Dangers nouvellement découverts
</desc>
    <author>
      <name>CECLANT INFONAUT</name>
    </author>
    <link href="https://portail.ping-info-nautique.fr/avurnav-notice/cdf90bfb-5953-49a8-bb84-d69e41de6027"/>
    <bounds minlat="44.68333333333334" minlon="-1.166666666666674" maxlat="44.68333333333334" maxlon="-1.166666666666674"/>
  </metadata>
  <trk>
    <name>AVINAV BREST 223/25 #1/1</name>
    <desc>Objet immergé
</desc>
    <link href="https://portail.ping-info-nautique.fr/avurnav-notice/cdf90bfb-5953-49a8-bb84-d69e41de6027"/>
    <trkseg>
      <trkpt lat="44.68333333333334" lon="-1.166666666666674"/>
    </trkseg>
  </trk>
</gpx>
