<?xml version="1.0" encoding="UTF-8"?><gpx xmlns="http://www.topografix.com/GPX/1/1" version="1.1" creator="JPX - https://github.com/jenetics/jpx">
  <metadata>
    <name>AVINAV BREST 211/23</name>
    <desc>Mise en garde : ces données GPX générées depuis PING sont partielles et seulement destinées à faciliter l'intégration de la position de l'avertissement de navigation ou de l'avis aux navigateurs dans une carte numérique. L'intégralité des informations est disponible sur le portail PING.
Danger, autres
</desc>
    <author>
      <name>CECLANT INFONAUT</name>
    </author>
    <link href="https://portail.ping-info-nautique.fr/avurnav-notice/225fd00b-30f6-4bf5-9e7b-681f64c44f41"/>
    <bounds minlat="48.85856666666663" minlon="-2.7928499999999636" maxlat="48.85856666666663" maxlon="-2.7928499999999636"/>
  </metadata>
  <trk>
    <name>AVINAV BREST 211/23 #1/1</name>
    <desc>Zone dangereuse
</desc>
    <link href="https://portail.ping-info-nautique.fr/avurnav-notice/225fd00b-30f6-4bf5-9e7b-681f64c44f41"/>
    <trkseg>
      <trkpt lat="48.85856666666663" lon="-2.7928499999999636"/>
    </trkseg>
  </trk>
</gpx>
