<?xml version="1.0" encoding="UTF-8"?><gpx xmlns="http://www.topografix.com/GPX/1/1" version="1.1" creator="JPX - https://github.com/jenetics/jpx">
  <metadata>
    <name>AVINAV BREST 215/23</name>
    <desc>Mise en garde : ces données GPX générées depuis PING sont partielles et seulement destinées à faciliter l'intégration de la position de l'avertissement de navigation ou de l'avis aux navigateurs dans une carte numérique. L'intégralité des informations est disponible sur le portail PING.
Dangers nouvellement découverts
</desc>
    <author>
      <name>CECLANT INFONAUT</name>
    </author>
    <link href="https://portail.ping-info-nautique.fr/avurnav-notice/2483ad27-f33e-4428-abbd-84cc42e7753e"/>
    <bounds minlat="48.34273166666666" minlon="-8.374500000000003" maxlat="48.34273166666666" maxlon="-8.374500000000003"/>
  </metadata>
  <trk>
    <name>AVINAV BREST 215/23 #1/1</name>
    <desc>Epave dangereuse
</desc>
    <link href="https://portail.ping-info-nautique.fr/avurnav-notice/2483ad27-f33e-4428-abbd-84cc42e7753e"/>
    <trkseg>
      <trkpt lat="48.34273166666666" lon="-8.374500000000003"/>
    </trkseg>
  </trk>
</gpx>
