<?xml version="1.0" encoding="UTF-8"?><gpx xmlns="http://www.topografix.com/GPX/1/1" version="1.1" creator="JPX - https://github.com/jenetics/jpx">
  <metadata>
    <name>AVINAV BREST 152/24</name>
    <desc>Mise en garde : ces données GPX générées depuis PING sont partielles et seulement destinées à faciliter l'intégration de la position de l'avertissement de navigation ou de l'avis aux navigateurs dans une carte numérique. L'intégralité des informations est disponible sur le portail PING.
Dangers nouvellement découverts
</desc>
    <author>
      <name>CECLANT INFONAUT</name>
    </author>
    <link href="https://portail.ping-info-nautique.fr/avurnav-notice/4606ede9-d7f6-4a3a-a348-0616a2156c98"/>
    <bounds minlat="46.181883333333346" minlon="-1.563499999999971" maxlat="46.181883333333346" maxlon="-1.563499999999971"/>
  </metadata>
  <trk>
    <name>AVINAV BREST 152/24 #1/1</name>
    <desc>Mouillage immergé
</desc>
    <link href="https://portail.ping-info-nautique.fr/avurnav-notice/4606ede9-d7f6-4a3a-a348-0616a2156c98"/>
    <trkseg>
      <trkpt lat="46.181883333333346" lon="-1.563499999999971"/>
    </trkseg>
  </trk>
</gpx>
