<?xml version="1.0" encoding="UTF-8"?><gpx xmlns="http://www.topografix.com/GPX/1/1" version="1.1" creator="JPX - https://github.com/jenetics/jpx">
  <metadata>
    <name>AVINAV BREST 284/23</name>
    <desc>Mise en garde : ces données GPX générées depuis PING sont partielles et seulement destinées à faciliter l'intégration de la position de l'avertissement de navigation ou de l'avis aux navigateurs dans une carte numérique. L'intégralité des informations est disponible sur le portail PING.
Dangers nouvellement découverts
</desc>
    <author>
      <name>CECLANT INFONAUT</name>
    </author>
    <link href="https://portail.ping-info-nautique.fr/avurnav-notice/391332fe-6ee5-49fb-96b1-bb8601bfba43"/>
    <bounds minlat="45.60500000000002" minlon="-1.0236666666666572" maxlat="45.60500000000002" maxlon="-1.0236666666666572"/>
  </metadata>
  <trk>
    <name>AVINAV BREST 284/23 #1/1</name>
    <desc>Epave dangereuse
</desc>
    <link href="https://portail.ping-info-nautique.fr/avurnav-notice/391332fe-6ee5-49fb-96b1-bb8601bfba43"/>
    <trkseg>
      <trkpt lat="45.60500000000002" lon="-1.0236666666666572"/>
    </trkseg>
  </trk>
</gpx>
