<?xml version="1.0" encoding="UTF-8"?><gpx xmlns="http://www.topografix.com/GPX/1/1" version="1.1" creator="JPX - https://github.com/jenetics/jpx">
  <metadata>
    <name>AVINAV BREST 3/25</name>
    <desc>Mise en garde : ces données GPX générées depuis PING sont partielles et seulement destinées à faciliter l'intégration de la position de l'avertissement de navigation ou de l'avis aux navigateurs dans une carte numérique. L'intégralité des informations est disponible sur le portail PING.
Danger, autres
</desc>
    <author>
      <name>CECLANT INFONAUT</name>
    </author>
    <link href="https://portail.ping-info-nautique.fr/avurnav-notice/a18c455f-ef3e-4c26-a7d7-0593914230bb"/>
    <bounds minlat="48.30076666666666" minlon="-4.618549999999967" maxlat="48.30076666666666" maxlon="-4.618549999999967"/>
  </metadata>
  <trk>
    <name>AVINAV BREST 3/25 #1/1</name>
    <desc>Présence de mines navales
</desc>
    <link href="https://portail.ping-info-nautique.fr/avurnav-notice/a18c455f-ef3e-4c26-a7d7-0593914230bb"/>
    <trkseg>
      <trkpt lat="48.30076666666666" lon="-4.618549999999967"/>
    </trkseg>
  </trk>
</gpx>
