<?xml version="1.0" encoding="UTF-8"?><gpx xmlns="http://www.topografix.com/GPX/1/1" version="1.1" creator="JPX - https://github.com/jenetics/jpx">
  <metadata>
    <name>AVINAV BREST 159/24</name>
    <desc>Mise en garde : ces données GPX générées depuis PING sont partielles et seulement destinées à faciliter l'intégration de la position de l'avertissement de navigation ou de l'avis aux navigateurs dans une carte numérique. L'intégralité des informations est disponible sur le portail PING.
Dangers nouvellement découverts
</desc>
    <author>
      <name>CECLANT INFONAUT</name>
    </author>
    <link href="https://portail.ping-info-nautique.fr/avurnav-notice/ed0902f7-7234-4436-85f8-046c5654eedb"/>
    <bounds minlat="47.02740833333332" minlon="-2.2972199999999647" maxlat="47.02740833333332" maxlon="-2.2972199999999647"/>
  </metadata>
  <trk>
    <name>AVINAV BREST 159/24 #1/1</name>
    <desc>Evolution d'une langue de sable ou d'un banc de sable - Faible profondeur signalée
</desc>
    <link href="https://portail.ping-info-nautique.fr/avurnav-notice/ed0902f7-7234-4436-85f8-046c5654eedb"/>
    <trkseg>
      <trkpt lat="47.02740833333332" lon="-2.2972199999999647"/>
    </trkseg>
  </trk>
</gpx>
