<?xml version="1.0" encoding="UTF-8"?><gpx xmlns="http://www.topografix.com/GPX/1/1" version="1.1" creator="JPX - https://github.com/jenetics/jpx">
  <metadata>
    <name>AVINAV BREST 172/25</name>
    <desc>Mise en garde : ces données GPX générées depuis PING sont partielles et seulement destinées à faciliter l'intégration de la position de l'avertissement de navigation ou de l'avis aux navigateurs dans une carte numérique. L'intégralité des informations est disponible sur le portail PING.
Dangers nouvellement découverts
</desc>
    <author>
      <name>CECLANT INFONAUT</name>
    </author>
    <link href="https://portail.ping-info-nautique.fr/avurnav-notice/82406729-ca11-46b8-89ac-e3df0ec3dbe9"/>
    <bounds minlat="47.708330249492406" minlon="-4.0076193809218985" maxlat="47.708330249492406" maxlon="-4.0076193809218985"/>
  </metadata>
  <trk>
    <name>AVINAV BREST 172/25 #1/1</name>
    <desc>Présence d'un filet de pêche immergé
</desc>
    <link href="https://portail.ping-info-nautique.fr/avurnav-notice/82406729-ca11-46b8-89ac-e3df0ec3dbe9"/>
    <trkseg>
      <trkpt lat="47.708330249492406" lon="-4.0076193809218985"/>
    </trkseg>
  </trk>
</gpx>
