<?xml version="1.0" encoding="UTF-8"?><gpx xmlns="http://www.topografix.com/GPX/1/1" version="1.1" creator="JPX - https://github.com/jenetics/jpx">
  <metadata>
    <name>AVINAV BREST 327/23</name>
    <desc>Mise en garde : ces données GPX générées depuis PING sont partielles et seulement destinées à faciliter l'intégration de la position de l'avertissement de navigation ou de l'avis aux navigateurs dans une carte numérique. L'intégralité des informations est disponible sur le portail PING.
Dangers nouvellement découverts
</desc>
    <author>
      <name>CECLANT INFONAUT</name>
    </author>
    <link href="https://portail.ping-info-nautique.fr/avurnav-notice/73709a7e-ede1-4bd9-82ce-08256587fe52"/>
    <bounds minlat="47.252000000000024" minlon="-2.252166666666688" maxlat="47.252000000000024" maxlon="-2.252166666666688"/>
  </metadata>
  <trk>
    <name>AVINAV BREST 327/23 #1/1</name>
    <desc>Epave dangereuse
</desc>
    <link href="https://portail.ping-info-nautique.fr/avurnav-notice/73709a7e-ede1-4bd9-82ce-08256587fe52"/>
    <trkseg>
      <trkpt lat="47.252000000000024" lon="-2.252166666666688"/>
    </trkseg>
  </trk>
</gpx>
