<?xml version="1.0" encoding="UTF-8"?><gpx xmlns="http://www.topografix.com/GPX/1/1" version="1.1" creator="JPX - https://github.com/jenetics/jpx">
  <metadata>
    <name>AVINAV BREST 189/24</name>
    <desc>Mise en garde : ces données GPX générées depuis PING sont partielles et seulement destinées à faciliter l'intégration de la position de l'avertissement de navigation ou de l'avis aux navigateurs dans une carte numérique. L'intégralité des informations est disponible sur le portail PING.
Dangers nouvellement découverts
</desc>
    <author>
      <name>CECLANT INFONAUT</name>
    </author>
    <link href="https://portail.ping-info-nautique.fr/avurnav-notice/cdbadcb0-95ba-43fd-8cef-df174e38a3c0"/>
    <bounds minlat="46.31218333333333" minlon="-1.6682166666667069" maxlat="46.31218333333333" maxlon="-1.6682166666667069"/>
  </metadata>
  <trk>
    <name>AVINAV BREST 189/24 #1/1</name>
    <desc>Objet immergé
</desc>
    <link href="https://portail.ping-info-nautique.fr/avurnav-notice/cdbadcb0-95ba-43fd-8cef-df174e38a3c0"/>
    <trkseg>
      <trkpt lat="46.31218333333333" lon="-1.6682166666667069"/>
    </trkseg>
  </trk>
</gpx>
