<?xml version="1.0" encoding="UTF-8"?><gpx xmlns="http://www.topografix.com/GPX/1/1" version="1.1" creator="JPX - https://github.com/jenetics/jpx">
  <metadata>
    <name>AVINAV BREST 361/20</name>
    <desc>Mise en garde : ces données GPX générées depuis PING sont partielles et seulement destinées à faciliter l'intégration de la position de l'avertissement de navigation ou de l'avis aux navigateurs dans une carte numérique. L'intégralité des informations est disponible sur le portail PING.
Dangers nouvellement découverts
</desc>
    <author>
      <name>CECLANT INFONAUT</name>
    </author>
    <link href="https://portail.ping-info-nautique.fr/avurnav-notice/d890b111-2f29-486b-92bf-a7a11abbea3a"/>
    <bounds minlat="43.53399999999999" minlon="-1.522333333333302" maxlat="43.53399999999999" maxlon="-1.522333333333302"/>
  </metadata>
  <trk>
    <name>AVINAV BREST 361/20 #1/1</name>
    <desc>Epave dangereuse
</desc>
    <link href="https://portail.ping-info-nautique.fr/avurnav-notice/d890b111-2f29-486b-92bf-a7a11abbea3a"/>
    <trkseg>
      <trkpt lat="43.53399999999999" lon="-1.522333333333302"/>
    </trkseg>
  </trk>
</gpx>
