<?xml version="1.0" encoding="UTF-8"?><gpx xmlns="http://www.topografix.com/GPX/1/1" version="1.1" creator="JPX - https://github.com/jenetics/jpx">
  <metadata>
    <name>AVINAV BREST 170/25</name>
    <desc>Mise en garde : ces données GPX générées depuis PING sont partielles et seulement destinées à faciliter l'intégration de la position de l'avertissement de navigation ou de l'avis aux navigateurs dans une carte numérique. L'intégralité des informations est disponible sur le portail PING.
Dangers nouvellement découverts
</desc>
    <author>
      <name>CECLANT INFONAUT</name>
    </author>
    <link href="https://portail.ping-info-nautique.fr/avurnav-notice/de5cfb1b-533b-4513-9475-650c0478d05d"/>
    <bounds minlat="48.62918" minlon="-2.1936800000000147" maxlat="48.62918" maxlon="-2.1936800000000147"/>
  </metadata>
  <trk>
    <name>AVINAV BREST 170/25 #1/1</name>
    <desc>Epave dangereuse
</desc>
    <link href="https://portail.ping-info-nautique.fr/avurnav-notice/de5cfb1b-533b-4513-9475-650c0478d05d"/>
    <trkseg>
      <trkpt lat="48.62918" lon="-2.1936800000000147"/>
    </trkseg>
  </trk>
</gpx>
