<?xml version="1.0" encoding="UTF-8"?><gpx xmlns="http://www.topografix.com/GPX/1/1" version="1.1" creator="JPX - https://github.com/jenetics/jpx">
  <metadata>
    <name>AVINAV BREST 22/23</name>
    <desc>Mise en garde : ces données GPX générées depuis PING sont partielles et seulement destinées à faciliter l'intégration de la position de l'avertissement de navigation ou de l'avis aux navigateurs dans une carte numérique. L'intégralité des informations est disponible sur le portail PING.
Dangers nouvellement découverts
</desc>
    <author>
      <name>CECLANT INFONAUT</name>
    </author>
    <link href="https://portail.ping-info-nautique.fr/avurnav-notice/3ecdf628-697d-4db7-a1f7-714d55c5e2e2"/>
    <bounds minlat="48.65183333333334" minlon="-2.6240000000000006" maxlat="48.65183333333334" maxlon="-2.6240000000000006"/>
  </metadata>
  <trk>
    <name>AVINAV BREST 22/23 #1/1</name>
    <desc>Présence d'un filet de pêche immergé
</desc>
    <link href="https://portail.ping-info-nautique.fr/avurnav-notice/3ecdf628-697d-4db7-a1f7-714d55c5e2e2"/>
    <trkseg>
      <trkpt lat="48.65183333333334" lon="-2.6240000000000006"/>
    </trkseg>
  </trk>
</gpx>
