<?xml version="1.0" encoding="UTF-8"?><gpx xmlns="http://www.topografix.com/GPX/1/1" version="1.1" creator="JPX - https://github.com/jenetics/jpx">
  <metadata>
    <name>AVINAV BREST 25/21</name>
    <desc>Mise en garde : ces données GPX générées depuis PING sont partielles et seulement destinées à faciliter l'intégration de la position de l'avertissement de navigation ou de l'avis aux navigateurs dans une carte numérique. L'intégralité des informations est disponible sur le portail PING.
Dangers nouvellement découverts
</desc>
    <author>
      <name>CECLANT INFONAUT</name>
    </author>
    <link href="https://portail.ping-info-nautique.fr/avurnav-notice/cbcaa96a-5ffd-48b5-9f4f-e72efd0d5310"/>
    <bounds minlat="47.722500000000004" minlon="-3.938333333333312" maxlat="47.722500000000004" maxlon="-3.938333333333312"/>
  </metadata>
  <trk>
    <name>AVINAV BREST 25/21 #1/1</name>
    <desc>Objet immergé
</desc>
    <link href="https://portail.ping-info-nautique.fr/avurnav-notice/cbcaa96a-5ffd-48b5-9f4f-e72efd0d5310"/>
    <trkseg>
      <trkpt lat="47.722500000000004" lon="-3.938333333333312"/>
    </trkseg>
  </trk>
</gpx>
