<?xml version="1.0" encoding="UTF-8"?><gpx xmlns="http://www.topografix.com/GPX/1/1" version="1.1" creator="JPX - https://github.com/jenetics/jpx">
  <metadata>
    <name>AVINAV BREST 237/21</name>
    <desc>Mise en garde : ces données GPX générées depuis PING sont partielles et seulement destinées à faciliter l'intégration de la position de l'avertissement de navigation ou de l'avis aux navigateurs dans une carte numérique. L'intégralité des informations est disponible sur le portail PING.
Dangers nouvellement découverts
</desc>
    <author>
      <name>CECLANT INFONAUT</name>
    </author>
    <link href="https://portail.ping-info-nautique.fr/avurnav-notice/aabb11fc-eed1-4126-b44c-52a710eec8df"/>
    <bounds minlat="48.68266666666662" minlon="-4.206833333333366" maxlat="48.68266666666662" maxlon="-4.206833333333366"/>
  </metadata>
  <trk>
    <name>AVINAV BREST 237/21 #1/1</name>
    <desc>Epave dangereuse
</desc>
    <link href="https://portail.ping-info-nautique.fr/avurnav-notice/aabb11fc-eed1-4126-b44c-52a710eec8df"/>
    <trkseg>
      <trkpt lat="48.68266666666662" lon="-4.206833333333366"/>
    </trkseg>
  </trk>
</gpx>
