<?xml version="1.0" encoding="UTF-8"?><gpx xmlns="http://www.topografix.com/GPX/1/1" version="1.1" creator="JPX - https://github.com/jenetics/jpx">
  <metadata>
    <name>AVINAV BREST 77/24</name>
    <desc>Mise en garde : ces données GPX générées depuis PING sont partielles et seulement destinées à faciliter l'intégration de la position de l'avertissement de navigation ou de l'avis aux navigateurs dans une carte numérique. L'intégralité des informations est disponible sur le portail PING.
Dangers nouvellement découverts
</desc>
    <author>
      <name>CECLANT INFONAUT</name>
    </author>
    <link href="https://portail.ping-info-nautique.fr/avurnav-notice/b314c0fa-64b7-4cc0-b6fe-7e94172b9e15"/>
    <bounds minlat="48.30554999999996" minlon="-4.5357333333332965" maxlat="48.30554999999996" maxlon="-4.5357333333332965"/>
  </metadata>
  <trk>
    <name>AVINAV BREST 77/24 #1/1</name>
    <desc>Objet immergé
</desc>
    <link href="https://portail.ping-info-nautique.fr/avurnav-notice/b314c0fa-64b7-4cc0-b6fe-7e94172b9e15"/>
    <trkseg>
      <trkpt lat="48.30554999999996" lon="-4.5357333333332965"/>
    </trkseg>
  </trk>
</gpx>
