<?xml version="1.0" encoding="UTF-8"?><gpx xmlns="http://www.topografix.com/GPX/1/1" version="1.1" creator="JPX - https://github.com/jenetics/jpx">
  <metadata>
    <name>AVINAV BREST 162/21</name>
    <desc>Mise en garde : ces données GPX générées depuis PING sont partielles et seulement destinées à faciliter l'intégration de la position de l'avertissement de navigation ou de l'avis aux navigateurs dans une carte numérique. L'intégralité des informations est disponible sur le portail PING.
Dangers nouvellement découverts
</desc>
    <author>
      <name>CECLANT INFONAUT</name>
    </author>
    <link href="https://portail.ping-info-nautique.fr/avurnav-notice/24fca755-c60b-4b23-a115-54e5751acb5c"/>
    <bounds minlat="47.17566666666662" minlon="-2.530666666666628" maxlat="47.17566666666662" maxlon="-2.530666666666628"/>
  </metadata>
  <trk>
    <name>AVINAV BREST 162/21 #1/1</name>
    <desc>Objet immergé
</desc>
    <link href="https://portail.ping-info-nautique.fr/avurnav-notice/24fca755-c60b-4b23-a115-54e5751acb5c"/>
    <trkseg>
      <trkpt lat="47.17566666666662" lon="-2.530666666666628"/>
    </trkseg>
  </trk>
</gpx>
