<?xml version="1.0" encoding="UTF-8"?><gpx xmlns="http://www.topografix.com/GPX/1/1" version="1.1" creator="JPX - https://github.com/jenetics/jpx">
  <metadata>
    <name>AVINAV BREST 132/25</name>
    <desc>Mise en garde : ces données GPX générées depuis PING sont partielles et seulement destinées à faciliter l'intégration de la position de l'avertissement de navigation ou de l'avis aux navigateurs dans une carte numérique. L'intégralité des informations est disponible sur le portail PING.
Dangers nouvellement découverts
</desc>
    <author>
      <name>CECLANT INFONAUT</name>
    </author>
    <link href="https://portail.ping-info-nautique.fr/avurnav-notice/d3f37142-aad5-413a-a2d0-1d80239f6840"/>
    <bounds minlat="48.71673333333333" minlon="-2.6279166666666653" maxlat="48.71673333333333" maxlon="-2.6279166666666653"/>
  </metadata>
  <trk>
    <name>AVINAV BREST 132/25 #1/1</name>
    <desc>Objet immergé
</desc>
    <link href="https://portail.ping-info-nautique.fr/avurnav-notice/d3f37142-aad5-413a-a2d0-1d80239f6840"/>
    <trkseg>
      <trkpt lat="48.71673333333333" lon="-2.6279166666666653"/>
    </trkseg>
  </trk>
</gpx>
