<?xml version="1.0" encoding="UTF-8"?><gpx xmlns="http://www.topografix.com/GPX/1/1" version="1.1" creator="JPX - https://github.com/jenetics/jpx">
  <metadata>
    <name>AVINAV BREST 132/22</name>
    <desc>Mise en garde : ces données GPX générées depuis PING sont partielles et seulement destinées à faciliter l'intégration de la position de l'avertissement de navigation ou de l'avis aux navigateurs dans une carte numérique. L'intégralité des informations est disponible sur le portail PING.
Dangers nouvellement découverts
</desc>
    <author>
      <name>CECLANT INFONAUT</name>
    </author>
    <link href="https://portail.ping-info-nautique.fr/avurnav-notice/2d9ae8a2-7670-464a-99ba-414abae49c2b"/>
    <bounds minlat="47.7033186143262" minlon="-3.3388717997698216" maxlat="47.7033186143262" maxlon="-3.3388717997698216"/>
  </metadata>
  <trk>
    <name>AVINAV BREST 132/22 #1/1</name>
    <desc>Epave dangereuse
</desc>
    <link href="https://portail.ping-info-nautique.fr/avurnav-notice/2d9ae8a2-7670-464a-99ba-414abae49c2b"/>
    <trkseg>
      <trkpt lat="47.7033186143262" lon="-3.3388717997698216"/>
    </trkseg>
  </trk>
</gpx>
