<?xml version="1.0" encoding="UTF-8"?><gpx xmlns="http://www.topografix.com/GPX/1/1" version="1.1" creator="JPX - https://github.com/jenetics/jpx">
  <metadata>
    <name>AVINAV BREST 29/22</name>
    <desc>Mise en garde : ces données GPX générées depuis PING sont partielles et seulement destinées à faciliter l'intégration de la position de l'avertissement de navigation ou de l'avis aux navigateurs dans une carte numérique. L'intégralité des informations est disponible sur le portail PING.
Dangers nouvellement découverts
</desc>
    <author>
      <name>CECLANT INFONAUT</name>
    </author>
    <link href="https://portail.ping-info-nautique.fr/avurnav-notice/a24be8e8-e0a8-40c4-8298-ee8bd5b8fcd6"/>
    <bounds minlat="44.316666666666684" minlon="-1.5166666666666226" maxlat="44.316666666666684" maxlon="-1.5166666666666226"/>
  </metadata>
  <trk>
    <name>AVINAV BREST 29/22 #1/1</name>
    <desc>Objet immergé
</desc>
    <link href="https://portail.ping-info-nautique.fr/avurnav-notice/a24be8e8-e0a8-40c4-8298-ee8bd5b8fcd6"/>
    <trkseg>
      <trkpt lat="44.316666666666684" lon="-1.5166666666666226"/>
    </trkseg>
  </trk>
</gpx>
