<?xml version="1.0" encoding="UTF-8"?><gpx xmlns="http://www.topografix.com/GPX/1/1" version="1.1" creator="JPX - https://github.com/jenetics/jpx">
  <metadata>
    <name>AVINAV BREST 228/22</name>
    <desc>Mise en garde : ces données GPX générées depuis PING sont partielles et seulement destinées à faciliter l'intégration de la position de l'avertissement de navigation ou de l'avis aux navigateurs dans une carte numérique. L'intégralité des informations est disponible sur le portail PING.
Dangers nouvellement découverts
</desc>
    <author>
      <name>CECLANT INFONAUT</name>
    </author>
    <link href="https://portail.ping-info-nautique.fr/avurnav-notice/06755736-56d0-4da3-9fda-41dc86acc701"/>
    <bounds minlat="46.82899999999999" minlon="-2.1483333333333334" maxlat="46.82899999999999" maxlon="-2.1483333333333334"/>
  </metadata>
  <trk>
    <name>AVINAV BREST 228/22 #1/1</name>
    <desc>Epave dangereuse
</desc>
    <link href="https://portail.ping-info-nautique.fr/avurnav-notice/06755736-56d0-4da3-9fda-41dc86acc701"/>
    <trkseg>
      <trkpt lat="46.82899999999999" lon="-2.1483333333333334"/>
    </trkseg>
  </trk>
</gpx>
