<?xml version="1.0" encoding="UTF-8"?><gpx xmlns="http://www.topografix.com/GPX/1/1" version="1.1" creator="JPX - https://github.com/jenetics/jpx">
  <metadata>
    <name>AVINAV BREST 358/20</name>
    <desc>Mise en garde : ces données GPX générées depuis PING sont partielles et seulement destinées à faciliter l'intégration de la position de l'avertissement de navigation ou de l'avis aux navigateurs dans une carte numérique. L'intégralité des informations est disponible sur le portail PING.
Dangers nouvellement découverts
</desc>
    <author>
      <name>CECLANT INFONAUT</name>
    </author>
    <link href="https://portail.ping-info-nautique.fr/avurnav-notice/96cc2373-7c12-4d43-a6a8-ecc5b7d53ff4"/>
    <bounds minlat="44.46403775128264" minlon="-1.7313216444463437" maxlat="44.47662823638022" maxlon="-1.7136783555536796"/>
  </metadata>
  <trk>
    <name>AVINAV BREST 358/20 #1/1</name>
    <desc>Objet immergé
</desc>
    <link href="https://portail.ping-info-nautique.fr/avurnav-notice/96cc2373-7c12-4d43-a6a8-ecc5b7d53ff4"/>
    <trkseg>
      <trkpt lat="44.47033333333336" lon="-1.7136783555536796"/>
      <trkpt lat="44.470950371743996" lon="-1.7137208341828893"/>
      <trkpt lat="44.471561461307935" lon="-1.7138478609780983"/>
      <trkpt lat="44.4721607171768" lon="-1.7140582126018282"/>
      <trkpt lat="44.472742368640745" lon="-1.7143498632529535"/>
      <trkpt lat="44.473300814686176" lon="-1.7147200041762707"/>
      <trkpt lat="44.473830677913206" lon="-1.715165070712349"/>
      <trkpt lat="44.47432685629448" lon="-1.7156807766271476"/>
      <trkpt lat="44.47478457227803" lon="-1.7162621553907935"/>
      <trkpt lat="44.47519941876244" lon="-1.7169036080079791"/>
      <trkpt lat="44.47556740150303" lon="-1.7175989569393468"/>
      <trkpt lat="44.47588497754192" lon="-1.7183415055945714"/>
      <trkpt lat="44.47614908929343" lon="-1.7191241028241848"/>
      <trkpt lat="44.47635719395783" lon="-1.7199392117890542"/>
      <trkpt lat="44.4765072879814" lon="-1.7207789825442648"/>
      <trkpt lat="44.47659792632842" lon="-1.721635327638378"/>
      <trkpt lat="44.47662823638022" lon="-1.7225000000000115"/>
      <trkpt lat="44.47659792632842" lon="-1.7233646723616451"/>
      <trkpt lat="44.4765072879814" lon="-1.7242210174557584"/>
      <trkpt lat="44.47635719395783" lon="-1.7250607882109688"/>
      <trkpt lat="44.47614908929343" lon="-1.7258758971758386"/>
      <trkpt lat="44.47588497754192" lon="-1.726658494405452"/>
      <trkpt lat="44.47556740150303" lon="-1.7274010430606765"/>
      <trkpt lat="44.47519941876244" lon="-1.728096391992044"/>
      <trkpt lat="44.47478457227803" lon="-1.7287378446092294"/>
      <trkpt lat="44.47432685629448" lon="-1.7293192233728754"/>
      <trkpt lat="44.473830677913206" lon="-1.729834929287674"/>
      <trkpt lat="44.473300814686176" lon="-1.7302799958237525"/>
      <trkpt lat="44.472742368640745" lon="-1.7306501367470697"/>
      <trkpt lat="44.4721607171768" lon="-1.7309417873981947"/>
      <trkpt lat="44.471561461307935" lon="-1.7311521390219249"/>
      <trkpt lat="44.470950371743996" lon="-1.7312791658171338"/>
      <trkpt lat="44.47033333333336" lon="-1.7313216444463437"/>
      <trkpt lat="44.46971628839928" lon="-1.7312791658171338"/>
      <trkpt lat="44.469105179515736" lon="-1.7311521390219249"/>
      <trkpt lat="44.46850589227353" lon="-1.7309417873981947"/>
      <trkpt lat="44.46792419858816" lon="-1.7306501367470697"/>
      <trkpt lat="44.46736570109577" lon="-1.7302799958237525"/>
      <trkpt lat="44.466835779173344" lon="-1.729834929287674"/>
      <trkpt lat="44.46633953710385" lon="-1.7293192233728754"/>
      <trkpt lat="44.465881754886766" lon="-1.7287378446092294"/>
      <trkpt lat="44.46546684216881" lon="-1.728096391992044"/>
      <trkpt lat="44.46509879573999" lon="-1.7274010430606765"/>
      <trkpt lat="44.4647811610057" lon="-1.726658494405452"/>
      <trkpt lat="44.464516997807245" lon="-1.7258758971758386"/>
      <trkpt lat="44.46430885092143" lon="-1.7250607882109688"/>
      <trkpt lat="44.464158725524506" lon="-1.7242210174557584"/>
      <trkpt lat="44.46406806785788" lon="-1.7233646723616451"/>
      <trkpt lat="44.46403775128264" lon="-1.7225000000000115"/>
      <trkpt lat="44.46406806785788" lon="-1.721635327638378"/>
      <trkpt lat="44.464158725524506" lon="-1.7207789825442648"/>
      <trkpt lat="44.46430885092143" lon="-1.7199392117890544"/>
      <trkpt lat="44.464516997807245" lon="-1.7191241028241848"/>
      <trkpt lat="44.4647811610057" lon="-1.7183415055945714"/>
      <trkpt lat="44.46509879573999" lon="-1.7175989569393468"/>
      <trkpt lat="44.46546684216881" lon="-1.7169036080079791"/>
      <trkpt lat="44.465881754886766" lon="-1.7162621553907935"/>
      <trkpt lat="44.46633953710385" lon="-1.7156807766271476"/>
      <trkpt lat="44.466835779173344" lon="-1.715165070712349"/>
      <trkpt lat="44.46736570109577" lon="-1.7147200041762707"/>
      <trkpt lat="44.46792419858816" lon="-1.7143498632529535"/>
      <trkpt lat="44.46850589227353" lon="-1.7140582126018282"/>
      <trkpt lat="44.469105179515736" lon="-1.7138478609780983"/>
      <trkpt lat="44.46971628839928" lon="-1.7137208341828893"/>
      <trkpt lat="44.47033333333336" lon="-1.7136783555536796"/>
      <trkpt lat="44.47033333333336" lon="-1.7136783555536796"/>
    </trkseg>
  </trk>
</gpx>
