<?xml version="1.0" encoding="UTF-8"?><gpx xmlns="http://www.topografix.com/GPX/1/1" version="1.1" creator="JPX - https://github.com/jenetics/jpx">
  <metadata>
    <name>AVINAV BREST 370/21</name>
    <desc>Mise en garde : ces données GPX générées depuis PING sont partielles et seulement destinées à faciliter l'intégration de la position de l'avertissement de navigation ou de l'avis aux navigateurs dans une carte numérique. L'intégralité des informations est disponible sur le portail PING.
Dangers nouvellement découverts
</desc>
    <author>
      <name>CECLANT INFONAUT</name>
    </author>
    <link href="https://portail.ping-info-nautique.fr/avurnav-notice/7c8e363a-ff16-492d-ba83-8d1b3e3069cc"/>
    <bounds minlat="43.36240000000001" minlon="-1.778783333333347" maxlat="43.36240000000001" maxlon="-1.778783333333347"/>
  </metadata>
  <trk>
    <name>AVINAV BREST 370/21 #1/1</name>
    <desc>Epave dangereuse
</desc>
    <link href="https://portail.ping-info-nautique.fr/avurnav-notice/7c8e363a-ff16-492d-ba83-8d1b3e3069cc"/>
    <trkseg>
      <trkpt lat="43.36240000000001" lon="-1.778783333333347"/>
    </trkseg>
  </trk>
</gpx>
