<?xml version="1.0" encoding="UTF-8"?><gpx xmlns="http://www.topografix.com/GPX/1/1" version="1.1" creator="JPX - https://github.com/jenetics/jpx">
  <metadata>
    <name>AVINAV BREST 217/25</name>
    <desc>Mise en garde : ces données GPX générées depuis PING sont partielles et seulement destinées à faciliter l'intégration de la position de l'avertissement de navigation ou de l'avis aux navigateurs dans une carte numérique. L'intégralité des informations est disponible sur le portail PING.
Dangers nouvellement découverts
</desc>
    <author>
      <name>CECLANT INFONAUT</name>
    </author>
    <link href="https://portail.ping-info-nautique.fr/avurnav-notice/2903622c-0579-443e-b9c6-3025307ba730"/>
    <bounds minlat="46.462814861827944" minlon="-1.8726692534412526" maxlat="46.462814861827944" maxlon="-1.8726692534412526"/>
  </metadata>
  <trk>
    <name>AVINAV BREST 217/25 #1/1</name>
    <desc>Epave dangereuse
</desc>
    <link href="https://portail.ping-info-nautique.fr/avurnav-notice/2903622c-0579-443e-b9c6-3025307ba730"/>
    <trkseg>
      <trkpt lat="46.462814861827944" lon="-1.8726692534412526"/>
    </trkseg>
  </trk>
</gpx>
