<?xml version="1.0" encoding="UTF-8"?><gpx xmlns="http://www.topografix.com/GPX/1/1" version="1.1" creator="JPX - https://github.com/jenetics/jpx">
  <metadata>
    <name>AVINAV BREST 80/25</name>
    <desc>Mise en garde : ces données GPX générées depuis PING sont partielles et seulement destinées à faciliter l'intégration de la position de l'avertissement de navigation ou de l'avis aux navigateurs dans une carte numérique. L'intégralité des informations est disponible sur le portail PING.
Dangers nouvellement découverts
</desc>
    <author>
      <name>CECLANT INFONAUT</name>
    </author>
    <link href="https://portail.ping-info-nautique.fr/avurnav-notice/24fab8e5-4d09-4e81-aef2-2c9fc3bea541"/>
    <bounds minlat="47.343500000000006" minlon="-3.136666666666684" maxlat="47.343500000000006" maxlon="-3.136666666666684"/>
  </metadata>
  <trk>
    <name>AVINAV BREST 80/25 #1/1</name>
    <desc>Objet immergé
</desc>
    <link href="https://portail.ping-info-nautique.fr/avurnav-notice/24fab8e5-4d09-4e81-aef2-2c9fc3bea541"/>
    <trkseg>
      <trkpt lat="47.343500000000006" lon="-3.136666666666684"/>
    </trkseg>
  </trk>
</gpx>
