<?xml version="1.0" encoding="UTF-8"?><gpx xmlns="http://www.topografix.com/GPX/1/1" version="1.1" creator="JPX - https://github.com/jenetics/jpx">
  <metadata>
    <name>AVINAV BREST 216/22</name>
    <desc>Mise en garde : ces données GPX générées depuis PING sont partielles et seulement destinées à faciliter l'intégration de la position de l'avertissement de navigation ou de l'avis aux navigateurs dans une carte numérique. L'intégralité des informations est disponible sur le portail PING.
Dangers nouvellement découverts
</desc>
    <author>
      <name>CECLANT INFONAUT</name>
    </author>
    <link href="https://portail.ping-info-nautique.fr/avurnav-notice/11f8e2b2-f528-49fd-9314-9b9c89f13141"/>
    <bounds minlat="48.21349999999999" minlon="-4.841833333333334" maxlat="48.21349999999999" maxlon="-4.841833333333334"/>
  </metadata>
  <trk>
    <name>AVINAV BREST 216/22 #1/1</name>
    <desc>Objet immergé
</desc>
    <link href="https://portail.ping-info-nautique.fr/avurnav-notice/11f8e2b2-f528-49fd-9314-9b9c89f13141"/>
    <trkseg>
      <trkpt lat="48.21349999999999" lon="-4.841833333333334"/>
    </trkseg>
  </trk>
</gpx>
