<?xml version="1.0" encoding="UTF-8"?><gpx xmlns="http://www.topografix.com/GPX/1/1" version="1.1" creator="JPX - https://github.com/jenetics/jpx">
  <metadata>
    <name>AVINAV BREST 278/24</name>
    <desc>Mise en garde : ces données GPX générées depuis PING sont partielles et seulement destinées à faciliter l'intégration de la position de l'avertissement de navigation ou de l'avis aux navigateurs dans une carte numérique. L'intégralité des informations est disponible sur le portail PING.
Danger, autres
</desc>
    <author>
      <name>CECLANT INFONAUT</name>
    </author>
    <link href="https://portail.ping-info-nautique.fr/avurnav-notice/25854204-caa1-4fe3-ba76-810fe741f03a"/>
    <bounds minlat="44.31670715592844" minlon="-1.588085956716415" maxlat="44.338290858555354" maxlon="-1.557914043283597"/>
  </metadata>
  <trk>
    <name>AVINAV BREST 278/24 #1/1</name>
    <desc>Engin explosif
</desc>
    <link href="https://portail.ping-info-nautique.fr/avurnav-notice/25854204-caa1-4fe3-ba76-810fe741f03a"/>
    <trkseg>
      <trkpt lat="44.3275" lon="-1.573000000000006"/>
    </trkseg>
  </trk>
  <trk>
    <name>AVINAV BREST 278/24 #1/1</name>
    <desc>Engin explosif
</desc>
    <link href="https://portail.ping-info-nautique.fr/avurnav-notice/25854204-caa1-4fe3-ba76-810fe741f03a"/>
    <trkseg>
      <trkpt lat="44.32749999999994" lon="-1.557914043283597"/>
      <trkpt lat="44.328557776867044" lon="-1.557986686288598"/>
      <trkpt lat="44.32960534796378" lon="-1.5582039157117518"/>
      <trkpt lat="44.330632625421266" lon="-1.558563639514964"/>
      <trkpt lat="44.33162971731705" lon="-1.5590623933613645"/>
      <trkpt lat="44.332587022888866" lon="-1.559695373978766"/>
      <trkpt lat="44.333495324927" lon="-1.5604564854178005"/>
      <trkpt lat="44.33434587845771" lon="-1.561338397759244"/>
      <trkpt lat="44.335130494867244" lon="-1.5623326177051466"/>
      <trkpt lat="44.335841620659515" lon="-1.563429570373933"/>
      <trkpt lat="44.33647241009326" lon="-1.564618691511747"/>
      <trkpt lat="44.3370167910031" lon="-1.5658885292319926"/>
      <trkpt lat="44.33746952317475" lon="-1.5672268543032595"/>
      <trkpt lat="44.33782624871615" lon="-1.5686207779235086"/>
      <trkpt lat="44.33808353394314" lon="-1.5700568758462803"/>
      <trkpt lat="44.338238902379366" lon="-1.5715213176635279"/>
      <trkpt lat="44.338290858555354" lon="-1.573000000000006"/>
      <trkpt lat="44.338238902379366" lon="-1.574478682336484"/>
      <trkpt lat="44.33808353394314" lon="-1.5759431241537316"/>
      <trkpt lat="44.33782624871615" lon="-1.5773792220765035"/>
      <trkpt lat="44.33746952317475" lon="-1.5787731456967524"/>
      <trkpt lat="44.3370167910031" lon="-1.5801114707680193"/>
      <trkpt lat="44.33647241009326" lon="-1.581381308488265"/>
      <trkpt lat="44.335841620659515" lon="-1.5825704296260792"/>
      <trkpt lat="44.335130494867244" lon="-1.5836673822948653"/>
      <trkpt lat="44.33434587845771" lon="-1.584661602240768"/>
      <trkpt lat="44.333495324927" lon="-1.5855435145822114"/>
      <trkpt lat="44.332587022888866" lon="-1.586304626021246"/>
      <trkpt lat="44.33162971731705" lon="-1.5869376066386474"/>
      <trkpt lat="44.330632625421266" lon="-1.587436360485048"/>
      <trkpt lat="44.32960534796378" lon="-1.5877960842882604"/>
      <trkpt lat="44.328557776867044" lon="-1.588013313711414"/>
      <trkpt lat="44.32749999999994" lon="-1.588085956716415"/>
      <trkpt lat="44.32644220405727" lon="-1.588013313711414"/>
      <trkpt lat="44.32539457646689" lon="-1.5877960842882604"/>
      <trkpt lat="44.32436720726871" lon="-1.587436360485048"/>
      <trkpt lat="44.323369991910724" lon="-1.5869376066386474"/>
      <trkpt lat="44.32241253589977" lon="-1.586304626021246"/>
      <trkpt lat="44.321504062226886" lon="-1.5855435145822114"/>
      <trkpt lat="44.3206533224616" lon="-1.584661602240768"/>
      <trkpt lat="44.31986851237458" lon="-1.5836673822948653"/>
      <trkpt lat="44.31915719290483" lon="-1.5825704296260792"/>
      <trkpt lat="44.31852621723651" lon="-1.581381308488265"/>
      <trkpt lat="44.317981664691914" lon="-1.5801114707680193"/>
      <trkpt lat="44.31752878208115" lon="-1.5787731456967524"/>
      <trkpt lat="44.31717193307754" lon="-1.5773792220765035"/>
      <trkpt lat="44.316914556109865" lon="-1.5759431241537316"/>
      <trkpt lat="44.316759131179985" lon="-1.574478682336484"/>
      <trkpt lat="44.31670715592844" lon="-1.573000000000006"/>
      <trkpt lat="44.316759131179985" lon="-1.5715213176635279"/>
      <trkpt lat="44.316914556109865" lon="-1.5700568758462803"/>
      <trkpt lat="44.31717193307754" lon="-1.5686207779235086"/>
      <trkpt lat="44.31752878208115" lon="-1.5672268543032595"/>
      <trkpt lat="44.317981664691914" lon="-1.5658885292319926"/>
      <trkpt lat="44.31852621723651" lon="-1.564618691511747"/>
      <trkpt lat="44.31915719290483" lon="-1.563429570373933"/>
      <trkpt lat="44.31986851237458" lon="-1.5623326177051466"/>
      <trkpt lat="44.3206533224616" lon="-1.561338397759244"/>
      <trkpt lat="44.321504062226886" lon="-1.5604564854178005"/>
      <trkpt lat="44.32241253589977" lon="-1.559695373978766"/>
      <trkpt lat="44.323369991910724" lon="-1.5590623933613645"/>
      <trkpt lat="44.32436720726871" lon="-1.558563639514964"/>
      <trkpt lat="44.32539457646689" lon="-1.5582039157117518"/>
      <trkpt lat="44.32644220405727" lon="-1.557986686288598"/>
      <trkpt lat="44.32749999999994" lon="-1.557914043283597"/>
      <trkpt lat="44.32749999999994" lon="-1.557914043283597"/>
    </trkseg>
  </trk>
</gpx>
