<?xml version="1.0" encoding="UTF-8"?><gpx xmlns="http://www.topografix.com/GPX/1/1" version="1.1" creator="JPX - https://github.com/jenetics/jpx">
  <metadata>
    <name>AVINAV BREST 151/19</name>
    <desc>Mise en garde : ces données GPX générées depuis PING sont partielles et seulement destinées à faciliter l'intégration de la position de l'avertissement de navigation ou de l'avis aux navigateurs dans une carte numérique. L'intégralité des informations est disponible sur le portail PING.
Dangers nouvellement découverts
</desc>
    <author>
      <name>CECLANT INFONAUT</name>
    </author>
    <link href="https://portail.ping-info-nautique.fr/avurnav-notice/ee6454a7-8b23-4b63-b831-76b5616aa35e"/>
    <bounds minlat="46.30783333333331" minlon="-1.587850000000005" maxlat="46.30783333333331" maxlon="-1.587850000000005"/>
  </metadata>
  <trk>
    <name>AVINAV BREST 151/19 #1/1</name>
    <desc>Objet immergé
</desc>
    <link href="https://portail.ping-info-nautique.fr/avurnav-notice/ee6454a7-8b23-4b63-b831-76b5616aa35e"/>
    <trkseg>
      <trkpt lat="46.30783333333331" lon="-1.587850000000005"/>
    </trkseg>
  </trk>
</gpx>
