<?xml version="1.0" encoding="UTF-8"?><gpx xmlns="http://www.topografix.com/GPX/1/1" version="1.1" creator="JPX - https://github.com/jenetics/jpx">
  <metadata>
    <name>AVINAV BREST 133/21</name>
    <desc>Mise en garde : ces données GPX générées depuis PING sont partielles et seulement destinées à faciliter l'intégration de la position de l'avertissement de navigation ou de l'avis aux navigateurs dans une carte numérique. L'intégralité des informations est disponible sur le portail PING.
Dangers nouvellement découverts
</desc>
    <author>
      <name>CECLANT INFONAUT</name>
    </author>
    <link href="https://portail.ping-info-nautique.fr/avurnav-notice/96b29d03-e6d8-43a4-88f7-c67b29385452"/>
    <bounds minlat="48.74833333333332" minlon="-2.6320000000000356" maxlat="48.74833333333332" maxlon="-2.6320000000000356"/>
  </metadata>
  <trk>
    <name>AVINAV BREST 133/21 #1/1</name>
    <desc>Présence d'un filet de pêche immergé
</desc>
    <link href="https://portail.ping-info-nautique.fr/avurnav-notice/96b29d03-e6d8-43a4-88f7-c67b29385452"/>
    <trkseg>
      <trkpt lat="48.74833333333332" lon="-2.6320000000000356"/>
    </trkseg>
  </trk>
</gpx>
