<?xml version="1.0" encoding="UTF-8"?><gpx xmlns="http://www.topografix.com/GPX/1/1" version="1.1" creator="JPX - https://github.com/jenetics/jpx">
  <metadata>
    <name>AVINAV BREST 310/22</name>
    <desc>Mise en garde : ces données GPX générées depuis PING sont partielles et seulement destinées à faciliter l'intégration de la position de l'avertissement de navigation ou de l'avis aux navigateurs dans une carte numérique. L'intégralité des informations est disponible sur le portail PING.
Dangers nouvellement découverts
</desc>
    <author>
      <name>CECLANT INFONAUT</name>
    </author>
    <link href="https://portail.ping-info-nautique.fr/avurnav-notice/90f0c046-045f-4b32-b8e8-40a3feefff69"/>
    <bounds minlat="48.638333333333314" minlon="-4.583333333333334" maxlat="48.638333333333314" maxlon="-4.583333333333334"/>
  </metadata>
  <trk>
    <name>AVINAV BREST 310/22 #1/1</name>
    <desc>Epave dangereuse
</desc>
    <link href="https://portail.ping-info-nautique.fr/avurnav-notice/90f0c046-045f-4b32-b8e8-40a3feefff69"/>
    <trkseg>
      <trkpt lat="48.638333333333314" lon="-4.583333333333334"/>
    </trkseg>
  </trk>
</gpx>
