<?xml version="1.0" encoding="UTF-8"?><gpx xmlns="http://www.topografix.com/GPX/1/1" version="1.1" creator="JPX - https://github.com/jenetics/jpx">
  <metadata>
    <name>AVINAV BREST 261/23</name>
    <desc>Mise en garde : ces données GPX générées depuis PING sont partielles et seulement destinées à faciliter l'intégration de la position de l'avertissement de navigation ou de l'avis aux navigateurs dans une carte numérique. L'intégralité des informations est disponible sur le portail PING.
Dangers nouvellement découverts
</desc>
    <author>
      <name>CECLANT INFONAUT</name>
    </author>
    <link href="https://portail.ping-info-nautique.fr/avurnav-notice/ef9dc7ac-46c1-47d2-80e0-4aec9b12fa29"/>
    <bounds minlat="47.57666666666663" minlon="-2.7416666666667115" maxlat="47.57666666666663" maxlon="-2.7416666666667115"/>
  </metadata>
  <trk>
    <name>AVINAV BREST 261/23 #1/1</name>
    <desc>Dangers nouvellement découverts</desc>
    <link href="https://portail.ping-info-nautique.fr/avurnav-notice/ef9dc7ac-46c1-47d2-80e0-4aec9b12fa29"/>
    <trkseg>
      <trkpt lat="47.57666666666663" lon="-2.7416666666667115"/>
    </trkseg>
  </trk>
</gpx>
