<?xml version="1.0" encoding="UTF-8"?><gpx xmlns="http://www.topografix.com/GPX/1/1" version="1.1" creator="JPX - https://github.com/jenetics/jpx">
  <metadata>
    <name>AVINAV BREST 173/25</name>
    <desc>Mise en garde : ces données GPX générées depuis PING sont partielles et seulement destinées à faciliter l'intégration de la position de l'avertissement de navigation ou de l'avis aux navigateurs dans une carte numérique. L'intégralité des informations est disponible sur le portail PING.
Dangers nouvellement découverts
</desc>
    <author>
      <name>CECLANT INFONAUT</name>
    </author>
    <link href="https://portail.ping-info-nautique.fr/avurnav-notice/556d7485-9252-4124-be43-63352b684739"/>
    <bounds minlat="48.30203464733611" minlon="-4.4115373431121" maxlat="48.30563195594801" maxlon="-4.40612932355461"/>
  </metadata>
  <trk>
    <name>AVINAV BREST 173/25 #1/1</name>
    <desc>Objet immergé
</desc>
    <link href="https://portail.ping-info-nautique.fr/avurnav-notice/556d7485-9252-4124-be43-63352b684739"/>
    <trkseg>
      <trkpt lat="48.303833333333316" lon="-4.40612932355461"/>
      <trkpt lat="48.30400963198034" lon="-4.406142344100775"/>
      <trkpt lat="48.30418423217486" lon="-4.406181280344295"/>
      <trkpt lat="48.30435545244752" lon="-4.406245757307859"/>
      <trkpt lat="48.30452164389564" lon="-4.406335154043061"/>
      <trkpt lat="48.30468120606151" lon="-4.4064486096104725"/>
      <trkpt lat="48.30483260234339" lon="-4.406585031370958"/>
      <trkpt lat="48.30497437479121" lon="-4.406743105508389"/>
      <trkpt lat="48.305105158144414" lon="-4.406921309682409"/>
      <trkpt lat="48.30522369297681" lon="-4.407117927689405"/>
      <trkpt lat="48.305328837822245" lon="-4.40733106599049"/>
      <trkpt lat="48.305419580163935" lon="-4.407558671947308"/>
      <trkpt lat="48.30549504618245" lon="-4.407798553590076"/>
      <trkpt lat="48.305554509167926" lon="-4.408048400727439"/>
      <trkpt lat="48.30559739651605" lon="-4.408305807194885"/>
      <trkpt lat="48.30562329524037" lon="-4.408568294027418"/>
      <trkpt lat="48.30563195594801" lon="-4.408833333333354"/>
      <trkpt lat="48.30562329524037" lon="-4.409098372639291"/>
      <trkpt lat="48.30559739651605" lon="-4.409360859471825"/>
      <trkpt lat="48.305554509167926" lon="-4.409618265939271"/>
      <trkpt lat="48.30549504618245" lon="-4.409868113076634"/>
      <trkpt lat="48.305419580163935" lon="-4.410107994719401"/>
      <trkpt lat="48.305328837822245" lon="-4.41033560067622"/>
      <trkpt lat="48.30522369297681" lon="-4.410548738977304"/>
      <trkpt lat="48.305105158144414" lon="-4.4107453569843"/>
      <trkpt lat="48.30497437479121" lon="-4.41092356115832"/>
      <trkpt lat="48.30483260234339" lon="-4.411081635295751"/>
      <trkpt lat="48.30468120606151" lon="-4.411218057056237"/>
      <trkpt lat="48.30452164389564" lon="-4.411331512623648"/>
      <trkpt lat="48.30435545244752" lon="-4.41142090935885"/>
      <trkpt lat="48.30418423217486" lon="-4.411485386322415"/>
      <trkpt lat="48.30400963198034" lon="-4.411524322565934"/>
      <trkpt lat="48.303833333333316" lon="-4.4115373431121"/>
      <trkpt lat="48.30365703407734" lon="-4.411524322565934"/>
      <trkpt lat="48.303482432079406" lon="-4.411485386322415"/>
      <trkpt lat="48.30331120887817" lon="-4.41142090935885"/>
      <trkpt lat="48.303145013488816" lon="-4.411331512623648"/>
      <trkpt lat="48.302985446520566" lon="-4.411218057056237"/>
      <trkpt lat="48.302834044759685" lon="-4.411081635295751"/>
      <trkpt lat="48.30269226636681" lon="-4.41092356115832"/>
      <trkpt lat="48.30256147683096" lon="-4.4107453569843"/>
      <trkpt lat="48.30244293581589" lon="-4.410548738977304"/>
      <trkpt lat="48.30233778502541" lon="-4.41033560067622"/>
      <trkpt lat="48.30224703720471" lon="-4.410107994719401"/>
      <trkpt lat="48.30217156638381" lon="-4.409868113076634"/>
      <trkpt lat="48.302112099457126" lon="-4.409618265939271"/>
      <trkpt lat="48.302069209180424" lon="-4.409360859471825"/>
      <trkpt lat="48.30204330865267" lon="-4.409098372639291"/>
      <trkpt lat="48.30203464733611" lon="-4.408833333333354"/>
      <trkpt lat="48.30204330865267" lon="-4.408568294027418"/>
      <trkpt lat="48.302069209180424" lon="-4.408305807194885"/>
      <trkpt lat="48.302112099457126" lon="-4.408048400727439"/>
      <trkpt lat="48.30217156638381" lon="-4.407798553590076"/>
      <trkpt lat="48.30224703720471" lon="-4.407558671947308"/>
      <trkpt lat="48.30233778502541" lon="-4.40733106599049"/>
      <trkpt lat="48.30244293581589" lon="-4.407117927689405"/>
      <trkpt lat="48.30256147683096" lon="-4.406921309682409"/>
      <trkpt lat="48.30269226636681" lon="-4.406743105508389"/>
      <trkpt lat="48.302834044759685" lon="-4.406585031370958"/>
      <trkpt lat="48.302985446520566" lon="-4.4064486096104725"/>
      <trkpt lat="48.303145013488816" lon="-4.406335154043061"/>
      <trkpt lat="48.30331120887817" lon="-4.406245757307859"/>
      <trkpt lat="48.303482432079406" lon="-4.406181280344295"/>
      <trkpt lat="48.30365703407734" lon="-4.406142344100775"/>
      <trkpt lat="48.303833333333316" lon="-4.40612932355461"/>
      <trkpt lat="48.303833333333316" lon="-4.40612932355461"/>
    </trkseg>
  </trk>
</gpx>
