<?xml version="1.0" encoding="UTF-8"?><gpx xmlns="http://www.topografix.com/GPX/1/1" version="1.1" creator="JPX - https://github.com/jenetics/jpx">
  <metadata>
    <name>AVINAV BREST 152/21</name>
    <desc>Mise en garde : ces données GPX générées depuis PING sont partielles et seulement destinées à faciliter l'intégration de la position de l'avertissement de navigation ou de l'avis aux navigateurs dans une carte numérique. L'intégralité des informations est disponible sur le portail PING.
Dangers nouvellement découverts
</desc>
    <author>
      <name>CECLANT INFONAUT</name>
    </author>
    <link href="https://portail.ping-info-nautique.fr/avurnav-notice/56a5727d-e011-4e56-b1de-9cad386c6a88"/>
    <bounds minlat="47.34600000000002" minlon="-3.139166666666655" maxlat="47.34600000000002" maxlon="-3.139166666666655"/>
  </metadata>
  <trk>
    <name>AVINAV BREST 152/21 #1/1</name>
    <desc>Objet immergé
</desc>
    <link href="https://portail.ping-info-nautique.fr/avurnav-notice/56a5727d-e011-4e56-b1de-9cad386c6a88"/>
    <trkseg>
      <trkpt lat="47.34600000000002" lon="-3.139166666666655"/>
    </trkseg>
  </trk>
</gpx>
