<?xml version="1.0" encoding="UTF-8"?><gpx xmlns="http://www.topografix.com/GPX/1/1" version="1.1" creator="JPX - https://github.com/jenetics/jpx">
  <metadata>
    <name>AVINAV BREST 192/25</name>
    <desc>Mise en garde : ces données GPX générées depuis PING sont partielles et seulement destinées à faciliter l'intégration de la position de l'avertissement de navigation ou de l'avis aux navigateurs dans une carte numérique. L'intégralité des informations est disponible sur le portail PING.
Dangers nouvellement découverts
</desc>
    <author>
      <name>CECLANT INFONAUT</name>
    </author>
    <link href="https://portail.ping-info-nautique.fr/avurnav-notice/c83be872-619f-443f-9102-b862416330d5"/>
    <bounds minlat="48.644999999999975" minlon="-2.041666666666635" maxlat="48.644999999999975" maxlon="-2.041666666666635"/>
  </metadata>
  <trk>
    <name>AVINAV BREST 192/25 #1/1</name>
    <desc>Présence d'un filet de pêche immergé
</desc>
    <link href="https://portail.ping-info-nautique.fr/avurnav-notice/c83be872-619f-443f-9102-b862416330d5"/>
    <trkseg>
      <trkpt lat="48.644999999999975" lon="-2.041666666666635"/>
    </trkseg>
  </trk>
</gpx>
