<?xml version="1.0" encoding="UTF-8"?><gpx xmlns="http://www.topografix.com/GPX/1/1" version="1.1" creator="JPX - https://github.com/jenetics/jpx">
  <metadata>
    <name>AVINAV BREST 149/25</name>
    <desc>Mise en garde : ces données GPX générées depuis PING sont partielles et seulement destinées à faciliter l'intégration de la position de l'avertissement de navigation ou de l'avis aux navigateurs dans une carte numérique. L'intégralité des informations est disponible sur le portail PING.
Dangers nouvellement découverts
</desc>
    <author>
      <name>CECLANT INFONAUT</name>
    </author>
    <link href="https://portail.ping-info-nautique.fr/avurnav-notice/151c8d58-47d6-4ee8-8eef-f247540b7d63"/>
    <bounds minlat="48.72249999999999" minlon="-2.123500000000032" maxlat="48.72249999999999" maxlon="-2.123500000000032"/>
  </metadata>
  <trk>
    <name>AVINAV BREST 149/25 #1/1</name>
    <desc>Objet immergé
</desc>
    <link href="https://portail.ping-info-nautique.fr/avurnav-notice/151c8d58-47d6-4ee8-8eef-f247540b7d63"/>
    <trkseg>
      <trkpt lat="48.72249999999999" lon="-2.123500000000032"/>
    </trkseg>
  </trk>
</gpx>
