<?xml version="1.0" encoding="UTF-8"?><gpx xmlns="http://www.topografix.com/GPX/1/1" version="1.1" creator="JPX - https://github.com/jenetics/jpx">
  <metadata>
    <name>AVINAV BREST 148/24</name>
    <desc>Mise en garde : ces données GPX générées depuis PING sont partielles et seulement destinées à faciliter l'intégration de la position de l'avertissement de navigation ou de l'avis aux navigateurs dans une carte numérique. L'intégralité des informations est disponible sur le portail PING.
Dangers nouvellement découverts
</desc>
    <author>
      <name>CECLANT INFONAUT</name>
    </author>
    <link href="https://portail.ping-info-nautique.fr/avurnav-notice/fb81a649-8d7a-4fe8-9c0b-8fe47d3285e0"/>
    <bounds minlat="47.28999999999998" minlon="-1.9499999999999689" maxlat="47.28999999999998" maxlon="-1.9499999999999689"/>
  </metadata>
  <trk>
    <name>AVINAV BREST 148/24 #1/1</name>
    <desc>Objet immergé
</desc>
    <link href="https://portail.ping-info-nautique.fr/avurnav-notice/fb81a649-8d7a-4fe8-9c0b-8fe47d3285e0"/>
    <trkseg>
      <trkpt lat="47.28999999999998" lon="-1.9499999999999689"/>
    </trkseg>
  </trk>
</gpx>
