<?xml version="1.0" encoding="UTF-8"?><gpx xmlns="http://www.topografix.com/GPX/1/1" version="1.1" creator="JPX - https://github.com/jenetics/jpx">
  <metadata>
    <name>AVINAV BREST 195/25</name>
    <desc>Mise en garde : ces données GPX générées depuis PING sont partielles et seulement destinées à faciliter l'intégration de la position de l'avertissement de navigation ou de l'avis aux navigateurs dans une carte numérique. L'intégralité des informations est disponible sur le portail PING.
Dangers nouvellement découverts
</desc>
    <author>
      <name>CECLANT INFONAUT</name>
    </author>
    <link href="https://portail.ping-info-nautique.fr/avurnav-notice/c4aa1ba4-78e7-46d2-a812-2a05ba9731bd"/>
    <bounds minlat="44.33083333333334" minlon="-1.5091666666667085" maxlat="44.33083333333334" maxlon="-1.5091666666667085"/>
  </metadata>
  <trk>
    <name>AVINAV BREST 195/25 #1/1</name>
    <desc>Objet immergé
</desc>
    <link href="https://portail.ping-info-nautique.fr/avurnav-notice/c4aa1ba4-78e7-46d2-a812-2a05ba9731bd"/>
    <trkseg>
      <trkpt lat="44.33083333333334" lon="-1.5091666666667085"/>
    </trkseg>
  </trk>
</gpx>
