<?xml version="1.0" encoding="UTF-8"?><gpx xmlns="http://www.topografix.com/GPX/1/1" version="1.1" creator="JPX - https://github.com/jenetics/jpx">
  <metadata>
    <name>AVINAV BREST 173/24</name>
    <desc>Mise en garde : ces données GPX générées depuis PING sont partielles et seulement destinées à faciliter l'intégration de la position de l'avertissement de navigation ou de l'avis aux navigateurs dans une carte numérique. L'intégralité des informations est disponible sur le portail PING.
Dangers nouvellement découverts
</desc>
    <author>
      <name>CECLANT INFONAUT</name>
    </author>
    <link href="https://portail.ping-info-nautique.fr/avurnav-notice/9af51679-1571-4c29-b9d3-de070039d43d"/>
    <bounds minlat="48.94666666666666" minlon="-2.601666666666696" maxlat="48.94666666666666" maxlon="-2.601666666666696"/>
  </metadata>
  <trk>
    <name>AVINAV BREST 173/24 #1/1</name>
    <desc>Mouillage immergé
</desc>
    <link href="https://portail.ping-info-nautique.fr/avurnav-notice/9af51679-1571-4c29-b9d3-de070039d43d"/>
    <trkseg>
      <trkpt lat="48.94666666666666" lon="-2.601666666666696"/>
    </trkseg>
  </trk>
</gpx>
