<?xml version="1.0" encoding="UTF-8"?><gpx xmlns="http://www.topografix.com/GPX/1/1" version="1.1" creator="JPX - https://github.com/jenetics/jpx">
  <metadata>
    <name>AVINAV BREST 106/21</name>
    <desc>Mise en garde : ces données GPX générées depuis PING sont partielles et seulement destinées à faciliter l'intégration de la position de l'avertissement de navigation ou de l'avis aux navigateurs dans une carte numérique. L'intégralité des informations est disponible sur le portail PING.
Dangers nouvellement découverts
</desc>
    <author>
      <name>CECLANT INFONAUT</name>
    </author>
    <link href="https://portail.ping-info-nautique.fr/avurnav-notice/f596847f-58cf-4f06-8874-58a171f5e3a9"/>
    <bounds minlat="46.46999999999998" minlon="-1.7756666666666419" maxlat="46.46999999999998" maxlon="-1.7756666666666419"/>
  </metadata>
  <trk>
    <name>AVINAV BREST 106/21 #1/1</name>
    <desc>Objet immergé
</desc>
    <link href="https://portail.ping-info-nautique.fr/avurnav-notice/f596847f-58cf-4f06-8874-58a171f5e3a9"/>
    <trkseg>
      <trkpt lat="46.46999999999998" lon="-1.7756666666666419"/>
    </trkseg>
  </trk>
</gpx>
