<?xml version="1.0" encoding="UTF-8"?><gpx xmlns="http://www.topografix.com/GPX/1/1" version="1.1" creator="JPX - https://github.com/jenetics/jpx">
  <metadata>
    <name>AVIRADE BREST 299/25</name>
    <desc>Mise en garde : ces données GPX générées depuis PING sont partielles et seulement destinées à faciliter l'intégration de la position de l'avertissement de navigation ou de l'avis aux navigateurs dans une carte numérique. L'intégralité des informations est disponible sur le portail PING.
Dangers nouvellement découverts
</desc>
    <author>
      <name>CECLANT INFONAUT</name>
    </author>
    <link href="https://portail.ping-info-nautique.fr/avurnav-notice/e6ec2603-1948-4b0e-b633-46c4d700ebed"/>
    <bounds minlat="48.38609400502322" minlon="-4.409342535780707" maxlat="48.3878926457517" maxlon="-4.406634130886008"/>
  </metadata>
  <trk>
    <name>AVIRADE BREST 299/25 #1/1</name>
    <desc>Mouillage immergé
 du 19 sep 25 au 30 sep 25
</desc>
    <link href="https://portail.ping-info-nautique.fr/avurnav-notice/e6ec2603-1948-4b0e-b633-46c4d700ebed"/>
    <trkseg>
      <trkpt lat="48.38699333333334" lon="-4.406634130886008"/>
      <trkpt lat="48.38708148206735" lon="-4.406640651740934"/>
      <trkpt lat="48.387168781730374" lon="-4.406660151506312"/>
      <trkpt lat="48.387254391585465" lon="-4.406692442388742"/>
      <trkpt lat="48.38733748717346" lon="-4.406737213409375"/>
      <trkpt lat="48.38741726825271" lon="-4.406794033398808"/>
      <trkpt lat="48.3874929665051" lon="-4.406862355149481"/>
      <trkpt lat="48.38756385293486" lon="-4.406941520685588"/>
      <trkpt lat="48.38762924488841" lon="-4.407030767599737"/>
      <trkpt lat="48.38768851262779" lon="-4.4071292363953605"/>
      <trkpt lat="48.38774108539461" lon="-4.4072359787641275"/>
      <trkpt lat="48.38778645690584" lon="-4.407349966718675"/>
      <trkpt lat="48.38782419022879" lon="-4.407470102492688"/>
      <trkpt lat="48.38785392198831" lon="-4.407595229112992"/>
      <trkpt lat="48.3878753658655" lon="-4.407724141541829"/>
      <trkpt lat="48.38788831535467" lon="-4.407855598282041"/>
      <trkpt lat="48.3878926457517" lon="-4.407988333333358"/>
      <trkpt lat="48.38788831535467" lon="-4.408121068384674"/>
      <trkpt lat="48.3878753658655" lon="-4.408252525124887"/>
      <trkpt lat="48.38785392198831" lon="-4.408381437553724"/>
      <trkpt lat="48.38782419022879" lon="-4.408506564174027"/>
      <trkpt lat="48.38778645690584" lon="-4.408626699948041"/>
      <trkpt lat="48.38774108539461" lon="-4.408740687902587"/>
      <trkpt lat="48.38768851262779" lon="-4.408847430271354"/>
      <trkpt lat="48.38762924488841" lon="-4.408945899066978"/>
      <trkpt lat="48.38756385293486" lon="-4.409035145981129"/>
      <trkpt lat="48.3874929665051" lon="-4.409114311517235"/>
      <trkpt lat="48.38741726825271" lon="-4.409182633267908"/>
      <trkpt lat="48.38733748717346" lon="-4.4092394532573405"/>
      <trkpt lat="48.387254391585465" lon="-4.4092842242779735"/>
      <trkpt lat="48.387168781730374" lon="-4.409316515160405"/>
      <trkpt lat="48.38708148206735" lon="-4.409336014925782"/>
      <trkpt lat="48.38699333333334" lon="-4.409342535780707"/>
      <trkpt lat="48.386905184446654" lon="-4.409336014925782"/>
      <trkpt lat="48.386817884331464" lon="-4.409316515160405"/>
      <trkpt lat="48.3867322737421" lon="-4.4092842242779735"/>
      <trkpt lat="48.38664917716592" lon="-4.4092394532573405"/>
      <trkpt lat="48.38656939488259" lon="-4.409182633267908"/>
      <trkpt lat="48.38649369525646" lon="-4.409114311517235"/>
      <trkpt lat="48.3864228073361" lon="-4.409035145981129"/>
      <trkpt lat="48.38635741383239" lon="-4.408945899066978"/>
      <trkpt lat="48.38629814454284" lon="-4.408847430271354"/>
      <trkpt lat="48.38624557028544" lon="-4.408740687902587"/>
      <trkpt lat="48.38620019740047" lon="-4.408626699948041"/>
      <trkpt lat="48.38616246287342" lon="-4.408506564174027"/>
      <trkpt lat="48.38613273012574" lon="-4.408381437553724"/>
      <trkpt lat="48.38611128551427" lon="-4.408252525124887"/>
      <trkpt lat="48.38609833557292" lon="-4.408121068384674"/>
      <trkpt lat="48.38609400502322" lon="-4.407988333333358"/>
      <trkpt lat="48.38609833557292" lon="-4.407855598282041"/>
      <trkpt lat="48.38611128551427" lon="-4.407724141541829"/>
      <trkpt lat="48.38613273012574" lon="-4.407595229112992"/>
      <trkpt lat="48.38616246287342" lon="-4.407470102492688"/>
      <trkpt lat="48.38620019740047" lon="-4.407349966718675"/>
      <trkpt lat="48.38624557028544" lon="-4.4072359787641275"/>
      <trkpt lat="48.38629814454284" lon="-4.4071292363953605"/>
      <trkpt lat="48.38635741383239" lon="-4.407030767599737"/>
      <trkpt lat="48.3864228073361" lon="-4.406941520685588"/>
      <trkpt lat="48.38649369525646" lon="-4.406862355149481"/>
      <trkpt lat="48.38656939488259" lon="-4.406794033398808"/>
      <trkpt lat="48.38664917716592" lon="-4.406737213409375"/>
      <trkpt lat="48.3867322737421" lon="-4.406692442388742"/>
      <trkpt lat="48.386817884331464" lon="-4.406660151506312"/>
      <trkpt lat="48.386905184446654" lon="-4.406640651740934"/>
      <trkpt lat="48.38699333333334" lon="-4.406634130886008"/>
      <trkpt lat="48.38699333333334" lon="-4.406634130886008"/>
    </trkseg>
  </trk>
</gpx>
