<?xml version="1.0" encoding="UTF-8"?><gpx xmlns="http://www.topografix.com/GPX/1/1" version="1.1" creator="JPX - https://github.com/jenetics/jpx">
  <metadata>
    <name>AVIRADE BREST 326/25</name>
    <desc>Mise en garde : ces données GPX générées depuis PING sont partielles et seulement destinées à faciliter l'intégration de la position de l'avertissement de navigation ou de l'avis aux navigateurs dans une carte numérique. L'intégralité des informations est disponible sur le portail PING.
Danger, autres
</desc>
    <author>
      <name>CECLANT INFONAUT</name>
    </author>
    <link href="https://portail.ping-info-nautique.fr/avurnav-notice/fe3e0ab5-4db8-4a6b-b76f-d5b2bbc0b732"/>
    <bounds minlat="48.35233333333331" minlon="-4.5361666666666265" maxlat="48.35233333333331" maxlon="-4.5361666666666265"/>
  </metadata>
  <trk>
    <name>AVIRADE BREST 326/25 #1/1</name>
    <desc>Enregistreur acoustique - Zone dangereuse
</desc>
    <link href="https://portail.ping-info-nautique.fr/avurnav-notice/fe3e0ab5-4db8-4a6b-b76f-d5b2bbc0b732"/>
    <trkseg>
      <trkpt lat="48.35233333333331" lon="-4.5361666666666265"/>
    </trkseg>
  </trk>
</gpx>
