<?xml version="1.0" encoding="UTF-8"?><gpx xmlns="http://www.topografix.com/GPX/1/1" version="1.1" creator="JPX - https://github.com/jenetics/jpx">
  <metadata>
    <name>AVURNAV LOCAL BREST 3274/25</name>
    <desc>Mise en garde : ces données GPX générées depuis PING sont partielles et seulement destinées à faciliter l'intégration de la position de l'avertissement de navigation ou de l'avis aux navigateurs dans une carte numérique. L'intégralité des informations est disponible sur le portail PING.
Opérations spéciales
</desc>
    <author>
      <name>CECLANT INFONAUT</name>
    </author>
    <link href="https://portail.ping-info-nautique.fr/avurnav-notice/a27606a1-62fe-46e2-87c2-2506233f7f05"/>
    <bounds minlat="47.5303333333333" minlon="-3.3583333333332996" maxlat="47.71033333333329" maxlon="-3.118666666666674"/>
  </metadata>
  <trk>
    <name>AVURNAV LOCAL BREST 3274/25 #1/1</name>
    <desc>Exercice de tir
 du 200600 UTC oct 25 au 201500 UTC oct 25
 du 210600 UTC oct 25 au 211500 UTC oct 25
 du 220600 UTC oct 25 au 222000 UTC oct 25
 du 230600 UTC oct 25 au 231500 UTC oct 25
</desc>
    <link href="https://portail.ping-info-nautique.fr/avurnav-notice/a27606a1-62fe-46e2-87c2-2506233f7f05"/>
    <trkseg>
      <trkpt lat="47.71033333333329" lon="-3.315500000000013"/>
      <trkpt lat="47.6583333333333" lon="-3.203000000000043"/>
      <trkpt lat="47.60366666666665" lon="-3.118666666666674"/>
      <trkpt lat="47.597" lon="-3.131166666666711"/>
      <trkpt lat="47.5825" lon="-3.134666666666653"/>
      <trkpt lat="47.544166666666634" lon="-3.1355000000000066"/>
      <trkpt lat="47.53349999999999" lon="-3.146166666666629"/>
      <trkpt lat="47.5303333333333" lon="-3.161166666666637"/>
      <trkpt lat="47.686166666666686" lon="-3.3583333333332996"/>
      <trkpt lat="47.71033333333329" lon="-3.315500000000013"/>
      <trkpt lat="47.71033333333329" lon="-3.315500000000013"/>
    </trkseg>
  </trk>
</gpx>
