<?xml version="1.0" encoding="UTF-8"?><gpx xmlns="http://www.topografix.com/GPX/1/1" version="1.1" creator="JPX - https://github.com/jenetics/jpx">
  <metadata>
    <name>AVURNAV LOCAL BREST 3109/25</name>
    <desc>Mise en garde : ces données GPX générées depuis PING sont partielles et seulement destinées à faciliter l'intégration de la position de l'avertissement de navigation ou de l'avis aux navigateurs dans une carte numérique. L'intégralité des informations est disponible sur le portail PING.
Dangers nouvellement découverts
</desc>
    <author>
      <name>CECLANT INFONAUT</name>
    </author>
    <link href="https://portail.ping-info-nautique.fr/avurnav-notice/01645146-8983-42bb-87b9-5d8e35cf9035"/>
    <bounds minlat="45.637333333333345" minlon="-1.354666666666667" maxlat="45.637333333333345" maxlon="-1.354666666666667"/>
  </metadata>
  <trk>
    <name>AVURNAV LOCAL BREST 3109/25 #1/1</name>
    <desc>Epave dangereuse
</desc>
    <link href="https://portail.ping-info-nautique.fr/avurnav-notice/01645146-8983-42bb-87b9-5d8e35cf9035"/>
    <trkseg>
      <trkpt lat="45.637333333333345" lon="-1.354666666666667"/>
    </trkseg>
  </trk>
</gpx>
