<?xml version="1.0" encoding="UTF-8"?><gpx xmlns="http://www.topografix.com/GPX/1/1" version="1.1" creator="JPX - https://github.com/jenetics/jpx">
  <metadata>
    <name>AVURNAV LOCAL BREST 3278/25</name>
    <desc>Mise en garde : ces données GPX générées depuis PING sont partielles et seulement destinées à faciliter l'intégration de la position de l'avertissement de navigation ou de l'avis aux navigateurs dans une carte numérique. L'intégralité des informations est disponible sur le portail PING.
Dangers nouvellement découverts
</desc>
    <author>
      <name>CECLANT INFONAUT</name>
    </author>
    <link href="https://portail.ping-info-nautique.fr/avurnav-notice/5e5edb7f-a513-4ca3-a340-6ff2ab0ce9fc"/>
    <bounds minlat="47.245197725182955" minlon="-2.386450221043432" maxlat="47.245197725182955" maxlon="-2.386450221043432"/>
  </metadata>
  <trk>
    <name>AVURNAV LOCAL BREST 3278/25 #1/1</name>
    <desc>Epave dangereuse
</desc>
    <link href="https://portail.ping-info-nautique.fr/avurnav-notice/5e5edb7f-a513-4ca3-a340-6ff2ab0ce9fc"/>
    <trkseg>
      <trkpt lat="47.245197725182955" lon="-2.386450221043432"/>
    </trkseg>
  </trk>
</gpx>
