<?xml version="1.0" encoding="UTF-8"?><gpx xmlns="http://www.topografix.com/GPX/1/1" version="1.1" creator="JPX - https://github.com/jenetics/jpx">
  <metadata>
    <name>AVURNAV LOCAL BREST 3161/25</name>
    <desc>Mise en garde : ces données GPX générées depuis PING sont partielles et seulement destinées à faciliter l'intégration de la position de l'avertissement de navigation ou de l'avis aux navigateurs dans une carte numérique. L'intégralité des informations est disponible sur le portail PING.
Dangers nouvellement découverts
</desc>
    <author>
      <name>CECLANT INFONAUT</name>
    </author>
    <link href="https://portail.ping-info-nautique.fr/avurnav-notice/2f10e969-bdaa-41b2-9231-91ac810f8e5b"/>
    <bounds minlat="47.574666666666644" minlon="-3.0180000000000033" maxlat="47.574666666666644" maxlon="-3.0180000000000033"/>
  </metadata>
  <trk>
    <name>AVURNAV LOCAL BREST 3161/25 #1/1</name>
    <desc>Epave dangereuse
</desc>
    <link href="https://portail.ping-info-nautique.fr/avurnav-notice/2f10e969-bdaa-41b2-9231-91ac810f8e5b"/>
    <trkseg>
      <trkpt lat="47.574666666666644" lon="-3.0180000000000033"/>
    </trkseg>
  </trk>
</gpx>
