<?xml version="1.0" encoding="UTF-8"?><gpx xmlns="http://www.topografix.com/GPX/1/1" version="1.1" creator="JPX - https://github.com/jenetics/jpx">
  <metadata>
    <name>AVURNAV LOCAL BREST 3243/25</name>
    <desc>Mise en garde : ces données GPX générées depuis PING sont partielles et seulement destinées à faciliter l'intégration de la position de l'avertissement de navigation ou de l'avis aux navigateurs dans une carte numérique. L'intégralité des informations est disponible sur le portail PING.
Opérations spéciales
</desc>
    <author>
      <name>CECLANT INFONAUT</name>
    </author>
    <link href="https://portail.ping-info-nautique.fr/avurnav-notice/5d892fee-76aa-4b23-86c0-ea190c93879e"/>
    <bounds minlat="47.08051666666665" minlon="-2.329966666666667" maxlat="47.08051666666665" maxlon="-2.329966666666667"/>
  </metadata>
  <trk>
    <name>AVURNAV LOCAL BREST 3243/25 #1/1</name>
    <desc>Levé scientifique
 du 12 oct 25 au 19 oct 25
</desc>
    <link href="https://portail.ping-info-nautique.fr/avurnav-notice/5d892fee-76aa-4b23-86c0-ea190c93879e"/>
    <trkseg>
      <trkpt lat="47.08051666666665" lon="-2.329966666666667"/>
    </trkseg>
  </trk>
</gpx>
