<?xml version="1.0" encoding="UTF-8"?><gpx xmlns="http://www.topografix.com/GPX/1/1" version="1.1" creator="JPX - https://github.com/jenetics/jpx">
  <metadata>
    <name>AVURNAV LOCAL BREST 3217/25</name>
    <desc>Mise en garde : ces données GPX générées depuis PING sont partielles et seulement destinées à faciliter l'intégration de la position de l'avertissement de navigation ou de l'avis aux navigateurs dans une carte numérique. L'intégralité des informations est disponible sur le portail PING.
Dangers nouvellement découverts
</desc>
    <author>
      <name>CECLANT INFONAUT</name>
    </author>
    <link href="https://portail.ping-info-nautique.fr/avurnav-notice/fe4654bd-451f-4a50-a048-0d9e6e3362aa"/>
    <bounds minlat="48.14833333333332" minlon="-5.626666666666668" maxlat="48.14833333333332" maxlon="-5.626666666666668"/>
  </metadata>
  <trk>
    <name>AVURNAV LOCAL BREST 3217/25 #1/1</name>
    <desc>Epave dangereuse
</desc>
    <link href="https://portail.ping-info-nautique.fr/avurnav-notice/fe4654bd-451f-4a50-a048-0d9e6e3362aa"/>
    <trkseg>
      <trkpt lat="48.14833333333332" lon="-5.626666666666668"/>
    </trkseg>
  </trk>
</gpx>
