<?xml version="1.0" encoding="UTF-8"?><gpx xmlns="http://www.topografix.com/GPX/1/1" version="1.1" creator="JPX - https://github.com/jenetics/jpx">
  <metadata>
    <name>AVURNAV BREST 453/25</name>
    <desc>Mise en garde : ces données GPX générées depuis PING sont partielles et seulement destinées à faciliter l'intégration de la position de l'avertissement de navigation ou de l'avis aux navigateurs dans une carte numérique. L'intégralité des informations est disponible sur le portail PING.
Opérations spéciales
</desc>
    <author>
      <name>CECLANT INFONAUT</name>
    </author>
    <link href="https://portail.ping-info-nautique.fr/avurnav-notice/3bbc5620-7b26-41ad-85d7-27318fa36b56"/>
    <bounds minlat="38.57537199999996" minlon="-14.059097" maxlat="53.27118299999999" maxlon="-1.9921580000000334"/>
  </metadata>
  <trk>
    <name>AVURNAV BREST 453/25 #1/1</name>
    <desc>Levé scientifique
 du 30 sep 25 au 25 oct 25
</desc>
    <link href="https://portail.ping-info-nautique.fr/avurnav-notice/3bbc5620-7b26-41ad-85d7-27318fa36b56"/>
    <trkseg>
      <trkpt lat="45.81805000000001" lon="-4.011342999999979"/>
      <trkpt lat="45.824254999999965" lon="-4.006702999999986"/>
      <trkpt lat="45.831365000000005" lon="-4.002721999999968"/>
      <trkpt lat="45.838645" lon="-3.9982679999999973"/>
      <trkpt lat="45.845137000000044" lon="-3.989256999999981"/>
      <trkpt lat="45.85033499999998" lon="-3.9851520000000384"/>
      <trkpt lat="45.85357999999998" lon="-3.981844999999978"/>
    </trkseg>
  </trk>
  <trk>
    <name>AVURNAV BREST 453/25 #1/1</name>
    <desc>Levé scientifique
 du 30 sep 25 au 25 oct 25
</desc>
    <link href="https://portail.ping-info-nautique.fr/avurnav-notice/3bbc5620-7b26-41ad-85d7-27318fa36b56"/>
    <trkseg>
      <trkpt lat="38.64446299999999" lon="-10.522649999999999"/>
      <trkpt lat="38.673147999999976" lon="-10.53834699999998"/>
      <trkpt lat="38.774065" lon="-10.593568000000023"/>
      <trkpt lat="38.809940000000005" lon="-10.60193299999997"/>
      <trkpt lat="38.83333299999996" lon="-10.607389999999981"/>
      <trkpt lat="38.903576999999984" lon="-10.623770000000038"/>
      <trkpt lat="38.903576999999984" lon="-10.623770000000038"/>
      <trkpt lat="39.100624999999965" lon="-10.669722000000014"/>
      <trkpt lat="39.23477299999997" lon="-10.656322000000014"/>
      <trkpt lat="39.23515000000004" lon="-10.656283000000021"/>
      <trkpt lat="39.25710799999999" lon="-10.654090000000018"/>
      <trkpt lat="39.299548" lon="-10.649852000000037"/>
      <trkpt lat="39.309011999999996" lon="-10.648904999999957"/>
      <trkpt lat="39.32455300000001" lon="-10.647352999999967"/>
      <trkpt lat="39.39084999999999" lon="-10.640730000000001"/>
      <trkpt lat="39.40164999999997" lon="-10.63560800000003"/>
      <trkpt lat="39.47457000000001" lon="-10.601022999999989"/>
      <trkpt lat="39.48654199999999" lon="-10.595345000000025"/>
      <trkpt lat="39.572053000000004" lon="-10.535322999999972"/>
      <trkpt lat="39.65905199999998" lon="-10.506325"/>
      <trkpt lat="39.78199699999996" lon="-10.50471699999996"/>
      <trkpt lat="40.022441999999984" lon="-10.489119999999986"/>
      <trkpt lat="40.241085000000034" lon="-10.459415000000023"/>
      <trkpt lat="40.29608800000002" lon="-10.451942000000006"/>
      <trkpt lat="40.50672699999999" lon="-10.390042000000038"/>
      <trkpt lat="40.68831" lon="-10.411928000000024"/>
      <trkpt lat="40.761729999999964" lon="-10.448254999999959"/>
      <trkpt lat="40.827405000000006" lon="-10.480747999999997"/>
      <trkpt lat="40.857602" lon="-10.495689999999968"/>
      <trkpt lat="40.952233" lon="-10.50167200000001"/>
      <trkpt lat="41.075892" lon="-10.428849999999992"/>
      <trkpt lat="41.15280699999997" lon="-10.383556999999987"/>
      <trkpt lat="41.23114200000002" lon="-10.326652000000001"/>
      <trkpt lat="41.325944999999976" lon="-10.305877"/>
      <trkpt lat="41.808482000000005" lon="-10.294292999999994"/>
      <trkpt lat="42.375117" lon="-10.28069199999999"/>
      <trkpt lat="42.46052300000001" lon="-10.278639999999971"/>
      <trkpt lat="42.80746999999997" lon="-10.38316300000001"/>
      <trkpt lat="42.92856799999995" lon="-10.41964500000001"/>
      <trkpt lat="42.93340299999996" lon="-10.421101999999959"/>
      <trkpt lat="43.108428" lon="-10.473829999999978"/>
      <trkpt lat="43.226184999999965" lon="-10.525347999999997"/>
      <trkpt lat="43.300018" lon="-10.557649999999958"/>
      <trkpt lat="43.47378499999998" lon="-10.567956999999991"/>
      <trkpt lat="43.515825" lon="-10.570450000000012"/>
      <trkpt lat="43.55529299999998" lon="-10.572792000000032"/>
      <trkpt lat="43.757037000000025" lon="-10.522907999999957"/>
      <trkpt lat="43.83387699999998" lon="-10.466607999999969"/>
      <trkpt lat="43.848315000000056" lon="-10.456029999999979"/>
      <trkpt lat="43.884898000000014" lon="-10.429227"/>
    </trkseg>
  </trk>
  <trk>
    <name>AVURNAV BREST 453/25 #1/1</name>
    <desc>Levé scientifique
 du 30 sep 25 au 25 oct 25
</desc>
    <link href="https://portail.ping-info-nautique.fr/avurnav-notice/3bbc5620-7b26-41ad-85d7-27318fa36b56"/>
    <trkseg>
      <trkpt lat="53.27049499999998" lon="-9.01614699999999"/>
      <trkpt lat="53.27118299999999" lon="-9.017876999999968"/>
      <trkpt lat="53.27118299999999" lon="-9.017876999999968"/>
      <trkpt lat="53.27100000000001" lon="-9.018112"/>
      <trkpt lat="53.27100000000001" lon="-9.018112"/>
      <trkpt lat="53.27078200000002" lon="-9.018525000000022"/>
      <trkpt lat="53.27016700000002" lon="-9.01969500000004"/>
      <trkpt lat="53.27016700000002" lon="-9.01969500000004"/>
      <trkpt lat="53.27016700000002" lon="-9.01969500000004"/>
      <trkpt lat="53.266701999999974" lon="-9.023263000000036"/>
      <trkpt lat="53.265218000000004" lon="-9.024792000000009"/>
      <trkpt lat="53.263616999999975" lon="-9.025975000000024"/>
      <trkpt lat="53.26195300000002" lon="-9.027206999999958"/>
      <trkpt lat="53.26006499999997" lon="-9.028985000000043"/>
      <trkpt lat="53.25642799999998" lon="-9.033001999999984"/>
      <trkpt lat="53.25491" lon="-9.03486699999999"/>
      <trkpt lat="53.254205" lon="-9.035352000000037"/>
      <trkpt lat="53.24789200000003" lon="-9.035517000000029"/>
      <trkpt lat="53.24571999999997" lon="-9.037667999999972"/>
      <trkpt lat="53.243801999999995" lon="-9.041059999999964"/>
      <trkpt lat="53.24038800000002" lon="-9.049925000000034"/>
      <trkpt lat="53.23640299999999" lon="-9.06473199999998"/>
      <trkpt lat="53.228191999999986" lon="-9.078382999999988"/>
      <trkpt lat="53.225223" lon="-9.083318000000036"/>
      <trkpt lat="53.22478499999997" lon="-9.084817000000042"/>
      <trkpt lat="53.221372" lon="-9.096470000000007"/>
      <trkpt lat="53.21880199999995" lon="-9.11083199999998"/>
      <trkpt lat="53.21420699999999" lon="-9.137755000000004"/>
      <trkpt lat="53.20909299999998" lon="-9.158340000000008"/>
      <trkpt lat="53.18163299999999" lon="-9.236030000000014"/>
      <trkpt lat="53.15412700000003" lon="-9.32382299999998"/>
      <trkpt lat="53.082335" lon="-9.38570000000002"/>
      <trkpt lat="53.053350000000016" lon="-9.401685000000017"/>
      <trkpt lat="53.01454799999999" lon="-9.441570000000018"/>
      <trkpt lat="53.000707999999996" lon="-9.450682000000034"/>
      <trkpt lat="52.99568799999995" lon="-9.456345000000013"/>
      <trkpt lat="52.99101300000004" lon="-9.464834999999969"/>
      <trkpt lat="52.97831800000001" lon="-9.487889999999979"/>
      <trkpt lat="52.930039999999984" lon="-9.625597999999979"/>
      <trkpt lat="52.869728" lon="-9.77029199999996"/>
      <trkpt lat="52.86854799999999" lon="-9.802858000000017"/>
      <trkpt lat="52.86888699999997" lon="-9.87207700000002"/>
      <trkpt lat="52.868992999999975" lon="-9.893735000000015"/>
      <trkpt lat="52.87525199999994" lon="-10.023560000000044"/>
      <trkpt lat="52.90366800000002" lon="-10.313974999999967"/>
      <trkpt lat="52.901622999999965" lon="-10.383656999999992"/>
      <trkpt lat="52.89818800000001" lon="-10.50069299999998"/>
      <trkpt lat="52.83524299999996" lon="-10.994469999999978"/>
      <trkpt lat="52.671839999999996" lon="-11.233197000000017"/>
      <trkpt lat="52.51147299999999" lon="-11.535705000000002"/>
      <trkpt lat="52.36718500000002" lon="-11.678094999999963"/>
      <trkpt lat="52.36718500000002" lon="-11.678094999999963"/>
      <trkpt lat="52.176099999999984" lon="-11.866666999999971"/>
      <trkpt lat="52.15784300000002" lon="-11.884683000000045"/>
      <trkpt lat="52.13437800000002" lon="-11.907837999999973"/>
      <trkpt lat="52.04981299999999" lon="-11.991292000000044"/>
      <trkpt lat="52.04114700000001" lon="-11.99839300000002"/>
      <trkpt lat="51.917157" lon="-12.099999999999998"/>
      <trkpt lat="51.88783499999997" lon="-12.124027999999992"/>
      <trkpt lat="51.76635" lon="-12.22358300000004"/>
      <trkpt lat="51.711374999999954" lon="-12.268634999999966"/>
      <trkpt lat="51.69706299999997" lon="-12.280362000000032"/>
      <trkpt lat="51.64277999999999" lon="-12.324844999999966"/>
      <trkpt lat="51.630985" lon="-12.334511999999979"/>
      <trkpt lat="51.620554999999996" lon="-12.343057999999987"/>
      <trkpt lat="51.59388700000002" lon="-12.364913000000012"/>
      <trkpt lat="51.55355000000003" lon="-12.397967999999997"/>
      <trkpt lat="51.55184299999996" lon="-12.399999999999979"/>
      <trkpt lat="51.50078200000001" lon="-12.460786999999973"/>
      <trkpt lat="51.49999999999999" lon="-12.461717999999987"/>
      <trkpt lat="51.485987" lon="-12.478399999999956"/>
      <trkpt lat="51.485987" lon="-12.478399999999956"/>
      <trkpt lat="51.48201300000001" lon="-12.483130000000026"/>
      <trkpt lat="51.383843" lon="-12.600000000000028"/>
      <trkpt lat="51.33333299999999" lon="-12.660130000000033"/>
      <trkpt lat="51.302288" lon="-12.69708799999996"/>
      <trkpt lat="50.69383700000001" lon="-13.421435000000002"/>
      <trkpt lat="50.69383700000001" lon="-13.421435000000002"/>
      <trkpt lat="50.65593000000002" lon="-13.466562000000021"/>
      <trkpt lat="50.57725299999999" lon="-13.560223000000033"/>
      <trkpt lat="50.343233000000005" lon="-13.697042999999981"/>
      <trkpt lat="50.21344999999999" lon="-13.77291999999997"/>
      <trkpt lat="50.18760500000002" lon="-13.788031999999987"/>
      <trkpt lat="50.15443299999997" lon="-13.807425000000043"/>
      <trkpt lat="50.139711999999975" lon="-13.814292999999969"/>
      <trkpt lat="50.06167299999995" lon="-13.850705000000016"/>
      <trkpt lat="50.04142000000005" lon="-13.86015499999996"/>
      <trkpt lat="49.976532" lon="-13.890431999999976"/>
      <trkpt lat="49.976532" lon="-13.890431999999976"/>
      <trkpt lat="49.91672799999998" lon="-13.918335000000024"/>
      <trkpt lat="49.83100800000001" lon="-13.958329999999963"/>
      <trkpt lat="49.818002999999976" lon="-13.964398000000019"/>
      <trkpt lat="49.71903499999998" lon="-14.010575000000008"/>
      <trkpt lat="49.63338699999998" lon="-14.050537999999996"/>
      <trkpt lat="49.56652199999996" lon="-14.053312999999983"/>
      <trkpt lat="49.443042" lon="-14.05844000000001"/>
      <trkpt lat="49.427233000000015" lon="-14.059097"/>
      <trkpt lat="49.26883300000001" lon="-13.960044999999958"/>
      <trkpt lat="49.178182999999954" lon="-13.90335700000004"/>
      <trkpt lat="49.178182999999954" lon="-13.90335700000004"/>
      <trkpt lat="49.14461000000001" lon="-13.882362999999986"/>
      <trkpt lat="48.93335499999996" lon="-13.750258000000033"/>
      <trkpt lat="48.903053" lon="-13.731310000000041"/>
      <trkpt lat="48.87553300000002" lon="-13.72250300000001"/>
      <trkpt lat="48.83306700000001" lon="-13.708912000000021"/>
      <trkpt lat="48.74211699999998" lon="-13.620837999999994"/>
      <trkpt lat="48.626842999999965" lon="-13.387660000000029"/>
      <trkpt lat="48.55483199999999" lon="-13.32914300000003"/>
      <trkpt lat="48.46171500000001" lon="-13.253474999999987"/>
      <trkpt lat="47.84319800000001" lon="-13.060084999999997"/>
      <trkpt lat="47.69471299999999" lon="-13.01365799999999"/>
      <trkpt lat="47.44895500000001" lon="-12.90610000000002"/>
      <trkpt lat="47.44077199999997" lon="-12.90251800000003"/>
      <trkpt lat="47.30770700000001" lon="-12.844282000000005"/>
      <trkpt lat="47.29909800000001" lon="-12.840513000000001"/>
      <trkpt lat="47.200946999999985" lon="-12.797556999999967"/>
      <trkpt lat="47.16883700000001" lon="-12.783501999999963"/>
      <trkpt lat="47.002734999999994" lon="-12.710807000000024"/>
      <trkpt lat="46.97711499999999" lon="-12.699592999999986"/>
      <trkpt lat="46.902386999999976" lon="-12.66688700000003"/>
      <trkpt lat="46.87239999999995" lon="-12.653763000000039"/>
      <trkpt lat="46.661187000000005" lon="-12.56132300000004"/>
      <trkpt lat="46.612430000000025" lon="-12.539985000000012"/>
      <trkpt lat="46.46738299999996" lon="-12.476503"/>
      <trkpt lat="46.085247000000024" lon="-12.30925500000003"/>
      <trkpt lat="45.99681799999994" lon="-12.270555000000028"/>
      <trkpt lat="45.750609999999995" lon="-12.162798000000034"/>
      <trkpt lat="45.728352999999984" lon="-12.15305700000001"/>
      <trkpt lat="45.655033" lon="-12.120967999999968"/>
      <trkpt lat="45.589995" lon="-12.052595000000045"/>
      <trkpt lat="45.472530000000006" lon="-11.929104999999966"/>
      <trkpt lat="45.441587999999975" lon="-11.896576999999999"/>
      <trkpt lat="45.27848699999997" lon="-11.72511"/>
      <trkpt lat="45.25686799999998" lon="-11.702384999999977"/>
      <trkpt lat="45.139508000000006" lon="-11.579006999999997"/>
      <trkpt lat="45.032732999999986" lon="-11.519757000000011"/>
      <trkpt lat="44.96491299999996" lon="-11.438639999999992"/>
      <trkpt lat="44.877957000000045" lon="-11.414243000000024"/>
      <trkpt lat="44.851442" lon="-11.399393000000025"/>
      <trkpt lat="44.74753199999999" lon="-11.34120300000003"/>
      <trkpt lat="44.70381999999999" lon="-11.290244999999974"/>
      <trkpt lat="44.70381999999999" lon="-11.290244999999974"/>
      <trkpt lat="44.60706500000001" lon="-11.215267000000047"/>
      <trkpt lat="44.51826999999996" lon="-11.176380000000028"/>
      <trkpt lat="44.51023500000001" lon="-11.17285999999996"/>
      <trkpt lat="44.328337" lon="-11.146422999999976"/>
      <trkpt lat="44.32775799999999" lon="-11.146338000000043"/>
      <trkpt lat="44.32526700000002" lon="-11.14597700000001"/>
      <trkpt lat="44.310817999999934" lon="-11.144145000000039"/>
      <trkpt lat="44.14121800000003" lon="-11.122640000000034"/>
      <trkpt lat="43.97777500000001" lon="-11.014704999999962"/>
      <trkpt lat="43.96953499999999" lon="-10.993407999999999"/>
      <trkpt lat="43.90250799999998" lon="-10.82015800000004"/>
      <trkpt lat="43.89877699999996" lon="-10.737338000000031"/>
      <trkpt lat="43.89114499999995" lon="-10.56791500000002"/>
      <trkpt lat="43.89092500000004" lon="-10.563006999999963"/>
      <trkpt lat="43.89044999999995" lon="-10.552475000000005"/>
      <trkpt lat="43.88881999999999" lon="-10.516293000000022"/>
      <trkpt lat="43.88569499999998" lon="-10.446910000000022"/>
      <trkpt lat="43.884898000000014" lon="-10.429227"/>
    </trkseg>
  </trk>
  <trk>
    <name>AVURNAV BREST 453/25 #1/1</name>
    <desc>Levé scientifique
 du 30 sep 25 au 25 oct 25
</desc>
    <link href="https://portail.ping-info-nautique.fr/avurnav-notice/3bbc5620-7b26-41ad-85d7-27318fa36b56"/>
    <trkseg>
      <trkpt lat="38.656439999999996" lon="-9.379425000000001"/>
      <trkpt lat="38.656227" lon="-9.382953000000011"/>
      <trkpt lat="38.65603699999996" lon="-9.386093000000004"/>
      <trkpt lat="38.65584699999999" lon="-9.38925500000002"/>
      <trkpt lat="38.65532500000001" lon="-9.397913000000035"/>
      <trkpt lat="38.64750500000001" lon="-9.412706999999985"/>
      <trkpt lat="38.64433499999997" lon="-9.418703000000017"/>
      <trkpt lat="38.643648000000006" lon="-9.420002000000013"/>
      <trkpt lat="38.635099999999994" lon="-9.436172000000038"/>
      <trkpt lat="38.62798" lon="-9.451387000000041"/>
      <trkpt lat="38.62051799999997" lon="-9.46733500000003"/>
      <trkpt lat="38.61859799999998" lon="-9.471435000000008"/>
      <trkpt lat="38.61802200000001" lon="-9.472670000000011"/>
      <trkpt lat="38.616056999999984" lon="-9.47686800000001"/>
      <trkpt lat="38.614102999999986" lon="-9.507804999999996"/>
      <trkpt lat="38.61346299999996" lon="-9.51795499999998"/>
      <trkpt lat="38.613086999999986" lon="-9.523917999999979"/>
      <trkpt lat="38.61305799999997" lon="-9.524357999999987"/>
      <trkpt lat="38.61306799999997" lon="-9.524417000000016"/>
      <trkpt lat="38.61843200000003" lon="-9.558188000000019"/>
      <trkpt lat="38.61861999999998" lon="-9.559379999999967"/>
      <trkpt lat="38.626433000000006" lon="-9.608575000000013"/>
      <trkpt lat="38.630385000000004" lon="-9.633455000000044"/>
      <trkpt lat="38.63154199999999" lon="-9.649845000000028"/>
      <trkpt lat="38.63158799999999" lon="-9.650512000000035"/>
      <trkpt lat="38.633298" lon="-9.674742000000025"/>
      <trkpt lat="38.63334199999998" lon="-9.67725699999998"/>
      <trkpt lat="38.633725" lon="-9.699565000000014"/>
      <trkpt lat="38.633907000000015" lon="-9.710092999999999"/>
      <trkpt lat="38.63411999999996" lon="-9.722493000000028"/>
      <trkpt lat="38.634136999999996" lon="-9.723477000000024"/>
      <trkpt lat="38.63427499999998" lon="-9.731562999999985"/>
      <trkpt lat="38.64299200000001" lon="-9.76962800000002"/>
      <trkpt lat="38.65091000000001" lon="-9.804207000000016"/>
      <trkpt lat="38.664642000000015" lon="-9.852880000000008"/>
      <trkpt lat="38.68714299999996" lon="-9.932642999999974"/>
      <trkpt lat="38.68732500000002" lon="-9.969927999999996"/>
      <trkpt lat="38.68211699999997" lon="-9.999239999999975"/>
      <trkpt lat="38.678634999999986" lon="-10.018845000000045"/>
      <trkpt lat="38.67787799999996" lon="-10.023101999999984"/>
      <trkpt lat="38.654264999999974" lon="-10.065605000000016"/>
      <trkpt lat="38.651607999999975" lon="-10.070384999999998"/>
      <trkpt lat="38.638254999999994" lon="-10.094422000000018"/>
      <trkpt lat="38.63798299999998" lon="-10.094912000000027"/>
      <trkpt lat="38.61803700000001" lon="-10.130817000000006"/>
      <trkpt lat="38.607699999999966" lon="-10.149422000000015"/>
      <trkpt lat="38.58005300000001" lon="-10.233998"/>
      <trkpt lat="38.57537199999996" lon="-10.346135000000041"/>
      <trkpt lat="38.579724999999975" lon="-10.366741999999979"/>
      <trkpt lat="38.59337199999999" lon="-10.431330000000013"/>
      <trkpt lat="38.64446299999999" lon="-10.522649999999999"/>
    </trkseg>
  </trk>
  <trk>
    <name>AVURNAV BREST 453/25 #1/1</name>
    <desc>Levé scientifique
 du 30 sep 25 au 25 oct 25
</desc>
    <link href="https://portail.ping-info-nautique.fr/avurnav-notice/3bbc5620-7b26-41ad-85d7-27318fa36b56"/>
    <trkseg>
      <trkpt lat="43.38732500000003" lon="-2.9963949999999917"/>
      <trkpt lat="43.38732500000003" lon="-2.9963949999999917"/>
      <trkpt lat="43.38746700000006" lon="-2.9964999999999615"/>
      <trkpt lat="43.38746700000006" lon="-2.9964999999999615"/>
      <trkpt lat="43.38918299999997" lon="-2.9964749999999607"/>
      <trkpt lat="43.39404299999996" lon="-2.9977329999999784"/>
      <trkpt lat="43.39705999999999" lon="-3.0001200000000368"/>
      <trkpt lat="43.405119999999975" lon="-3.0064980000000414"/>
      <trkpt lat="43.415461999999984" lon="-3.0140370000000374"/>
      <trkpt lat="43.42454199999999" lon="-3.020657000000024"/>
      <trkpt lat="43.44566000000001" lon="-3.0288979999999577"/>
      <trkpt lat="43.45371199999999" lon="-3.0297970000000185"/>
      <trkpt lat="43.50180999999999" lon="-3.0351579999999942"/>
      <trkpt lat="43.520234999999985" lon="-3.0329080000000377"/>
      <trkpt lat="43.54446499999998" lon="-3.029948000000021"/>
      <trkpt lat="43.56628699999996" lon="-3.0272780000000035"/>
      <trkpt lat="43.58211799999999" lon="-3.0261920000000164"/>
      <trkpt lat="43.582285000000034" lon="-3.026180000000012"/>
      <trkpt lat="43.616485000000004" lon="-3.0238350000000147"/>
      <trkpt lat="43.645621999999996" lon="-3.021836999999969"/>
      <trkpt lat="43.645621999999996" lon="-3.021836999999969"/>
      <trkpt lat="43.67006000000001" lon="-3.0201780000000236"/>
      <trkpt lat="43.680408" lon="-3.0146420000000376"/>
      <trkpt lat="43.680408" lon="-3.0146420000000376"/>
      <trkpt lat="43.68510200000003" lon="-3.0121399999999907"/>
      <trkpt lat="43.697337000000005" lon="-3.0056229999999884"/>
      <trkpt lat="43.72126800000002" lon="-2.9974100000000345"/>
      <trkpt lat="43.727339999999955" lon="-2.9953249999999807"/>
      <trkpt lat="43.76938999999998" lon="-2.984712999999965"/>
      <trkpt lat="43.80313699999995" lon="-2.976197000000014"/>
      <trkpt lat="43.84248300000001" lon="-2.9525769999999882"/>
      <trkpt lat="43.84288499999997" lon="-2.952424999999993"/>
      <trkpt lat="43.84369300000002" lon="-2.9521170000000327"/>
      <trkpt lat="43.882585000000034" lon="-2.937311999999982"/>
      <trkpt lat="43.92477299999998" lon="-2.9381429999999895"/>
      <trkpt lat="43.96146699999996" lon="-2.9607930000000104"/>
      <trkpt lat="43.98244800000003" lon="-2.9966800000000267"/>
      <trkpt lat="43.99056499999997" lon="-3.051995000000027"/>
      <trkpt lat="43.99805999999999" lon="-3.103079999999988"/>
      <trkpt lat="44.047012" lon="-3.1757330000000445"/>
      <trkpt lat="44.09353299999997" lon="-3.2078349999999936"/>
      <trkpt lat="44.14281999999997" lon="-3.262163000000021"/>
      <trkpt lat="44.14313500000002" lon="-3.262509999999973"/>
      <trkpt lat="44.20815499999998" lon="-3.334182000000014"/>
      <trkpt lat="44.25434699999995" lon="-3.3701600000000105"/>
      <trkpt lat="44.44627500000003" lon="-3.5196520000000278"/>
      <trkpt lat="44.595884999999974" lon="-3.7069199999999856"/>
      <trkpt lat="44.712728" lon="-3.7578749999999737"/>
      <trkpt lat="44.775434999999966" lon="-3.7852220000000307"/>
      <trkpt lat="44.89063499999999" lon="-3.8354600000000083"/>
      <trkpt lat="45.00037699999999" lon="-3.9442029999999826"/>
      <trkpt lat="45.05513500000004" lon="-3.9984670000000158"/>
      <trkpt lat="45.23644000000002" lon="-4.043623000000006"/>
    </trkseg>
  </trk>
  <trk>
    <name>AVURNAV BREST 453/25 #1/1</name>
    <desc>Levé scientifique
 du 30 sep 25 au 25 oct 25
</desc>
    <link href="https://portail.ping-info-nautique.fr/avurnav-notice/3bbc5620-7b26-41ad-85d7-27318fa36b56"/>
    <trkseg>
      <trkpt lat="38.65643944795184" lon="-9.379425475443156"/>
      <trkpt lat="38.65660678773011" lon="-9.374425567508313"/>
      <trkpt lat="38.666121724582375" lon="-9.361897525792061"/>
      <trkpt lat="38.6711356931408" lon="-9.34855665762327"/>
      <trkpt lat="38.6718723435217" lon="-9.344267899065468"/>
      <trkpt lat="38.673121790674045" lon="-9.342075553944403"/>
      <trkpt lat="38.67456604529995" lon="-9.337538833696572"/>
      <trkpt lat="38.67902333125952" lon="-9.332468308473562"/>
      <trkpt lat="38.67902333125952" lon="-9.332468308473562"/>
    </trkseg>
  </trk>
  <trk>
    <name>AVURNAV BREST 453/25 #1/1</name>
    <desc>Levé scientifique
 du 30 sep 25 au 25 oct 25
</desc>
    <link href="https://portail.ping-info-nautique.fr/avurnav-notice/3bbc5620-7b26-41ad-85d7-27318fa36b56"/>
    <trkseg>
      <trkpt lat="45.23644000000002" lon="-4.043623000000006"/>
      <trkpt lat="45.301769999999976" lon="-4.0299530000000425"/>
      <trkpt lat="45.33463199999998" lon="-4.038845000000009"/>
      <trkpt lat="45.431145000000015" lon="-4.11632699999997"/>
      <trkpt lat="45.481919999999974" lon="-4.155139999999975"/>
      <trkpt lat="45.512455" lon="-4.167110000000016"/>
      <trkpt lat="45.574748" lon="-4.195763000000019"/>
      <trkpt lat="45.59744199999998" lon="-4.202941999999974"/>
      <trkpt lat="45.633562000000005" lon="-4.199545000000017"/>
      <trkpt lat="45.665363000000006" lon="-4.18726500000003"/>
      <trkpt lat="45.68002299999997" lon="-4.175989999999978"/>
      <trkpt lat="45.69632699999995" lon="-4.162284999999994"/>
      <trkpt lat="45.71753000000004" lon="-4.132280000000013"/>
      <trkpt lat="45.72738299999995" lon="-4.107351999999966"/>
      <trkpt lat="45.73927499999996" lon="-4.0843929999999915"/>
      <trkpt lat="45.74358799999999" lon="-4.078287000000024"/>
      <trkpt lat="45.77099499999997" lon="-4.039937000000043"/>
      <trkpt lat="45.78106299999997" lon="-4.031439999999956"/>
      <trkpt lat="45.78978500000002" lon="-4.026440000000014"/>
      <trkpt lat="45.803147999999986" lon="-4.0217779999999985"/>
      <trkpt lat="45.81398499999999" lon="-4.014442999999987"/>
      <trkpt lat="45.81805000000001" lon="-4.011342999999979"/>
      <trkpt lat="45.81805000000001" lon="-4.011342999999979"/>
    </trkseg>
  </trk>
  <trk>
    <name>AVURNAV BREST 453/25 #1/1</name>
    <desc>Levé scientifique
 du 30 sep 25 au 25 oct 25
</desc>
    <link href="https://portail.ping-info-nautique.fr/avurnav-notice/3bbc5620-7b26-41ad-85d7-27318fa36b56"/>
    <trkseg>
      <trkpt lat="46.54085299999996" lon="-2.374738000000028"/>
      <trkpt lat="46.54085299999996" lon="-2.374738000000028"/>
      <trkpt lat="46.545228" lon="-2.367799999999972"/>
      <trkpt lat="46.587267999999966" lon="-2.1379220000000267"/>
      <trkpt lat="46.59415299999999" lon="-2.1222280000000238"/>
      <trkpt lat="46.631583" lon="-2.083417999999996"/>
      <trkpt lat="46.689194999999984" lon="-2.02642300000002"/>
      <trkpt lat="46.705925" lon="-2.009907000000035"/>
      <trkpt lat="46.707128" lon="-2.008722000000035"/>
      <trkpt lat="46.71276299999999" lon="-2.003169999999984"/>
      <trkpt lat="46.71458000000004" lon="-2.0019079999999936"/>
      <trkpt lat="46.720863" lon="-1.9975400000000387"/>
      <trkpt lat="46.72536200000002" lon="-1.994392000000014"/>
      <trkpt lat="46.72593500000002" lon="-1.993990000000004"/>
      <trkpt lat="46.726938" lon="-1.9932879999999757"/>
      <trkpt lat="46.72740499999999" lon="-1.9929629999999563"/>
      <trkpt lat="46.72766199999999" lon="-1.9927829999999813"/>
      <trkpt lat="46.727919999999976" lon="-1.9926020000000133"/>
      <trkpt lat="46.727957000000025" lon="-1.992577000000012"/>
      <trkpt lat="46.727957000000025" lon="-1.992577000000012"/>
      <trkpt lat="46.727957000000025" lon="-1.992577000000012"/>
      <trkpt lat="46.72836200000002" lon="-1.9921580000000334"/>
    </trkseg>
  </trk>
  <trk>
    <name>AVURNAV BREST 453/25 #1/1</name>
    <desc>Levé scientifique
 du 30 sep 25 au 25 oct 25
</desc>
    <link href="https://portail.ping-info-nautique.fr/avurnav-notice/3bbc5620-7b26-41ad-85d7-27318fa36b56"/>
    <trkseg>
      <trkpt lat="43.884898000000014" lon="-10.429227"/>
      <trkpt lat="43.886946999999985" lon="-10.425153000000016"/>
      <trkpt lat="43.966761999999996" lon="-10.266477000000046"/>
      <trkpt lat="44.200130000000016" lon="-9.964042999999984"/>
      <trkpt lat="44.295928000000025" lon="-9.839892000000033"/>
      <trkpt lat="44.30897299999996" lon="-9.822984999999962"/>
      <trkpt lat="44.513846999999984" lon="-9.55748200000002"/>
      <trkpt lat="44.602106999999975" lon="-9.381572999999966"/>
      <trkpt lat="44.60460699999997" lon="-9.376589999999991"/>
      <trkpt lat="44.618902999999996" lon="-9.34809800000001"/>
      <trkpt lat="44.717969999999966" lon="-9.150651999999996"/>
      <trkpt lat="44.728342000000005" lon="-9.12998199999997"/>
      <trkpt lat="44.776218" lon="-8.957417999999972"/>
      <trkpt lat="44.78612799999999" lon="-8.921698000000026"/>
      <trkpt lat="44.87863499999998" lon="-8.813565000000017"/>
      <trkpt lat="44.957913" lon="-8.72089500000004"/>
      <trkpt lat="44.999117999999996" lon="-8.563617999999984"/>
      <trkpt lat="44.995253000000005" lon="-8.503003000000023"/>
      <trkpt lat="44.98671200000001" lon="-8.369050000000035"/>
      <trkpt lat="44.95627299999999" lon="-7.8917179999999885"/>
      <trkpt lat="44.89575799999999" lon="-6.942722000000019"/>
      <trkpt lat="44.892787000000034" lon="-6.896121999999988"/>
      <trkpt lat="44.92098699999997" lon="-6.535825000000025"/>
      <trkpt lat="44.97435699999997" lon="-6.287830000000006"/>
      <trkpt lat="45.05403299999999" lon="-6.158302000000016"/>
      <trkpt lat="45.05403299999999" lon="-6.158302000000016"/>
      <trkpt lat="45.14915300000004" lon="-6.02447199999996"/>
      <trkpt lat="45.16985800000001" lon="-5.868162000000019"/>
      <trkpt lat="45.17038500000003" lon="-5.864188000000042"/>
      <trkpt lat="45.144560000000006" lon="-5.682387000000023"/>
      <trkpt lat="45.14232700000002" lon="-5.666667000000026"/>
      <trkpt lat="45.128032999999995" lon="-5.566041999999965"/>
      <trkpt lat="45.12279299999999" lon="-5.555062999999959"/>
      <trkpt lat="45.008332999999986" lon="-5.315327000000014"/>
      <trkpt lat="45.008332999999986" lon="-5.315327000000014"/>
      <trkpt lat="45.008332999999986" lon="-5.315327000000014"/>
      <trkpt lat="44.948041999999965" lon="-5.016853000000028"/>
      <trkpt lat="44.973302999999994" lon="-4.722421999999978"/>
      <trkpt lat="44.98017799999995" lon="-4.693710000000036"/>
      <trkpt lat="45.001828000000025" lon="-4.6032920000000015"/>
      <trkpt lat="45.01401200000002" lon="-4.552373000000025"/>
      <trkpt lat="45.039197999999985" lon="-4.446582000000037"/>
      <trkpt lat="45.06705700000002" lon="-4.329185000000017"/>
      <trkpt lat="45.078262" lon="-4.281330000000037"/>
      <trkpt lat="45.08670799999998" lon="-4.245256999999999"/>
      <trkpt lat="45.090025" lon="-4.230977999999974"/>
      <trkpt lat="45.13870500000002" lon="-4.1686870000000065"/>
      <trkpt lat="45.23644000000002" lon="-4.043623000000006"/>
    </trkseg>
  </trk>
  <trk>
    <name>AVURNAV BREST 453/25 #1/1</name>
    <desc>Levé scientifique
 du 30 sep 25 au 25 oct 25
</desc>
    <link href="https://portail.ping-info-nautique.fr/avurnav-notice/3bbc5620-7b26-41ad-85d7-27318fa36b56"/>
    <trkseg>
      <trkpt lat="45.85357999999998" lon="-3.981844999999978"/>
      <trkpt lat="45.85357999999998" lon="-3.981844999999978"/>
      <trkpt lat="45.861430000000006" lon="-3.9737629999999893"/>
      <trkpt lat="45.865896999999975" lon="-3.969157000000024"/>
      <trkpt lat="45.870180000000026" lon="-3.9645499999999756"/>
      <trkpt lat="45.873052" lon="-3.9614619999999725"/>
      <trkpt lat="45.882487000000005" lon="-3.942914999999998"/>
      <trkpt lat="45.904972" lon="-3.869810000000019"/>
      <trkpt lat="45.90751199999999" lon="-3.8627279999999997"/>
      <trkpt lat="45.915349999999975" lon="-3.850744999999962"/>
      <trkpt lat="45.925398000000015" lon="-3.835382000000025"/>
      <trkpt lat="45.93535799999997" lon="-3.820157000000004"/>
      <trkpt lat="45.93546800000002" lon="-3.8199120000000426"/>
      <trkpt lat="45.95729499999997" lon="-3.7718350000000265"/>
      <trkpt lat="46.00286200000002" lon="-3.612417000000046"/>
      <trkpt lat="46.107287999999976" lon="-3.2452580000000233"/>
      <trkpt lat="46.14930200000002" lon="-3.0533570000000227"/>
      <trkpt lat="46.24628299999999" lon="-2.8190329999999606"/>
      <trkpt lat="46.35178199999999" lon="-2.6717870000000183"/>
      <trkpt lat="46.35361299999998" lon="-2.6692130000000347"/>
      <trkpt lat="46.39186799999999" lon="-2.615667999999997"/>
      <trkpt lat="46.428282999999986" lon="-2.5548979999999726"/>
      <trkpt lat="46.44906200000001" lon="-2.5215000000000063"/>
      <trkpt lat="46.49789300000001" lon="-2.4428269999999994"/>
      <trkpt lat="46.50055200000005" lon="-2.4385469999999563"/>
      <trkpt lat="46.54085299999996" lon="-2.374738000000028"/>
    </trkseg>
  </trk>
</gpx>
