<?xml version="1.0" encoding="UTF-8"?><gpx xmlns="http://www.topografix.com/GPX/1/1" version="1.1" creator="JPX - https://github.com/jenetics/jpx">
  <metadata>
    <name>NAVAREA II 293/25</name>
    <desc>Mise en garde : ces données GPX générées depuis PING sont partielles et seulement destinées à faciliter l'intégration de la position de l'avertissement de navigation ou de l'avis aux navigateurs dans une carte numérique. L'intégralité des informations est disponible sur le portail PING.
Opérations spéciales
</desc>
    <author>
      <name>NAVAREA II</name>
    </author>
    <link href="https://portail.ping-info-nautique.fr/avurnav-notice/2c886d68-32f7-4e42-b741-337b3e8859db"/>
    <bounds minlat="12.400008042348015" minlon="-18.124840459250265" maxlat="13.066221006402095" maxlon="-17.44182620741641"/>
  </metadata>
  <trk>
    <name>NAVAREA II 293/25 #1/1</name>
    <desc>Exercice de tir
 du 210800 UTC oct 25 au 211400 UTC oct 25
</desc>
    <link href="https://portail.ping-info-nautique.fr/avurnav-notice/2c886d68-32f7-4e42-b741-337b3e8859db"/>
    <trkseg>
      <trkpt lat="12.733333333333322" lon="-17.783333333333335"/>
    </trkseg>
  </trk>
  <trk>
    <name>NAVAREA II 293/25 #1/1</name>
    <desc>Exercice de tir
 du 210800 UTC oct 25 au 211400 UTC oct 25
</desc>
    <link href="https://portail.ping-info-nautique.fr/avurnav-notice/2c886d68-32f7-4e42-b741-337b3e8859db"/>
    <trkseg>
      <trkpt lat="12.733333333333322" lon="-17.44182620741641"/>
      <trkpt lat="12.765981548784946" lon="-17.44347065757109"/>
      <trkpt lat="12.798311190323533" lon="-17.448388171081202"/>
      <trkpt lat="12.830011076100847" lon="-17.45653138960345"/>
      <trkpt lat="12.860776202659986" lon="-17.467821889491933"/>
      <trkpt lat="12.890310671731244" lon="-17.482150937060705"/>
      <trkpt lat="12.918330525275563" lon="-17.499380535748635"/>
      <trkpt lat="12.944566462013375" lon="-17.519344755101688"/>
      <trkpt lat="12.968766409965014" lon="-17.54185132877395"/>
      <trkpt lat="12.990697931036026" lon="-17.56668350615761"/>
      <trkpt lat="13.010150435388102" lon="-17.593602139809814"/>
      <trkpt lat="13.026937185222087" lon="-17.622347988573274"/>
      <trkpt lat="13.040897069642698" lon="-17.65264421421031"/>
      <trkpt lat="13.051896134454482" lon="-17.684199047506443"/>
      <trkpt lat="13.059828853034125" lon="-17.7167085981674"/>
      <trkpt lat="13.06461912681669" lon="-17.74985978144879"/>
      <trkpt lat="13.066221006402095" lon="-17.783333333333335"/>
      <trkpt lat="13.06461912681669" lon="-17.81680688521788"/>
      <trkpt lat="13.059828853034125" lon="-17.849958068499273"/>
      <trkpt lat="13.051896134454482" lon="-17.88246761916023"/>
      <trkpt lat="13.040897069642698" lon="-17.914022452456365"/>
      <trkpt lat="13.026937185222087" lon="-17.9443186780934"/>
      <trkpt lat="13.010150435388102" lon="-17.97306452685686"/>
      <trkpt lat="12.990697931036026" lon="-17.99998316050906"/>
      <trkpt lat="12.968766409965014" lon="-18.024815337892722"/>
      <trkpt lat="12.944566462013375" lon="-18.047321911564985"/>
      <trkpt lat="12.918330525275563" lon="-18.06728613091804"/>
      <trkpt lat="12.890310671731244" lon="-18.084515729605965"/>
      <trkpt lat="12.860776202659986" lon="-18.098844777174737"/>
      <trkpt lat="12.830011076100847" lon="-18.110135277063222"/>
      <trkpt lat="12.798311190323533" lon="-18.11827849558547"/>
      <trkpt lat="12.765981548784946" lon="-18.12319600909558"/>
      <trkpt lat="12.733333333333322" lon="-18.124840459250265"/>
      <trkpt lat="12.700680913470855" lon="-18.12319600909558"/>
      <trkpt lat="12.668338820279562" lon="-18.11827849558547"/>
      <trkpt lat="12.636618714136496" lon="-18.110135277063222"/>
      <trkpt lat="12.60582637558402" lon="-18.098844777174737"/>
      <trkpt lat="12.576258748666714" lon="-18.084515729605965"/>
      <trkpt lat="12.548201065694261" lon="-18.06728613091804"/>
      <trkpt lat="12.521924081738103" lon="-18.047321911564985"/>
      <trkpt lat="12.497681446218287" lon="-18.024815337892722"/>
      <trkpt lat="12.475707237695202" lon="-17.999983160509064"/>
      <trkpt lat="12.456213686455378" lon="-17.97306452685686"/>
      <trkpt lat="12.439389107688026" lon="-17.9443186780934"/>
      <trkpt lat="12.425396066004975" lon="-17.914022452456365"/>
      <trkpt lat="12.414369789783459" lon="-17.88246761916023"/>
      <trkpt lat="12.40641685133283" lon="-17.849958068499273"/>
      <trkpt lat="12.40161412622815" lon="-17.81680688521788"/>
      <trkpt lat="12.400008042348015" lon="-17.783333333333335"/>
      <trkpt lat="12.40161412622815" lon="-17.74985978144879"/>
      <trkpt lat="12.40641685133283" lon="-17.7167085981674"/>
      <trkpt lat="12.414369789783459" lon="-17.684199047506443"/>
      <trkpt lat="12.425396066004975" lon="-17.65264421421031"/>
      <trkpt lat="12.439389107688026" lon="-17.622347988573274"/>
      <trkpt lat="12.456213686455378" lon="-17.593602139809814"/>
      <trkpt lat="12.475707237695202" lon="-17.56668350615761"/>
      <trkpt lat="12.497681446218287" lon="-17.54185132877395"/>
      <trkpt lat="12.521924081738103" lon="-17.519344755101688"/>
      <trkpt lat="12.548201065694261" lon="-17.499380535748635"/>
      <trkpt lat="12.576258748666714" lon="-17.482150937060705"/>
      <trkpt lat="12.60582637558402" lon="-17.467821889491933"/>
      <trkpt lat="12.636618714136496" lon="-17.45653138960345"/>
      <trkpt lat="12.668338820279562" lon="-17.448388171081202"/>
      <trkpt lat="12.700680913470855" lon="-17.44347065757109"/>
      <trkpt lat="12.733333333333322" lon="-17.44182620741641"/>
      <trkpt lat="12.733333333333322" lon="-17.44182620741641"/>
    </trkseg>
  </trk>
</gpx>
