<?xml version="1.0" encoding="UTF-8"?><gpx xmlns="http://www.topografix.com/GPX/1/1" version="1.1" creator="JPX - https://github.com/jenetics/jpx">
  <metadata>
    <name>NAVAREA II 291/25</name>
    <desc>Mise en garde : ces données GPX générées depuis PING sont partielles et seulement destinées à faciliter l'intégration de la position de l'avertissement de navigation ou de l'avis aux navigateurs dans une carte numérique. L'intégralité des informations est disponible sur le portail PING.
Opérations spéciales
</desc>
    <author>
      <name>NAVAREA II</name>
    </author>
    <link href="https://portail.ping-info-nautique.fr/avurnav-notice/c770390e-92f9-4905-bc15-06822c354d84"/>
    <bounds minlat="-8.983152840993819E-6" minlon="-8.983152841195214E-6" maxlat="0.0" maxlon="0.0"/>
  </metadata>
</gpx>
